2020/05/23 00:12
EHVL 230012Z AUTO 23017KT 8000 BR OVC170 13/11 Q1016 BLU

2020/05/23 00:25
EHHW 230025Z AUTO 24010KT 210V300 9999 NSC 13/10 Q1016

2020/05/23 00:25
EHSC 230025Z AUTO 24026KT 7000 ///////// 13/11 Q1018 W13/H18

2020/05/23 00:25
EHSA 230025Z AUTO 22025KT 9000 ///////// 13/11 Q1019 W10/H20

2020/05/23 00:25
EHPG 230025Z AUTO 24023KT 8000 NSC 13/11 Q1017

2020/05/23 00:25
EHMG 230025Z AUTO 23018KT 9999 NSC 14/09 Q1016

2020/05/23 00:25
EHMA 230025Z AUTO 23016KT 9000 NSC 15/12 Q1017

2020/05/23 00:25
EHKV 230025Z AUTO 25029KT 9999 NSC 14/07 Q1017

2020/05/23 00:25
EHJR 230025Z AUTO 25026KT //// // ///////// 13/07 Q1016 RE// W11/H15

2020/05/23 00:25
EHQE 230025Z AUTO 22017KT 9000 NSC 13/11 Q1016

2020/05/23 00:25
EHWO 230025Z AUTO 24012KT 200V270 9999 SCT092 BKN098 OVC100 14/05 Q1020 BLU

2020/05/23 00:25
EHVL 230025Z AUTO 24017KT 9000 BR OVC160 13/10 Q1016 BLU

2020/05/23 00:25
EHVK 230025Z AUTO 24009KT 210V280 9999 OVC110 15/02 Q1019 BLU

2020/05/23 00:25
EHJA 230025Z AUTO 22029KT 9999 NSC 13/08 Q1014

2020/05/23 00:25
EHFZ 230025Z AUTO 24024KT 9999 NSC 14/08 Q1014

2020/05/23 00:25
EHFD 230025Z AUTO 00000KT //// // NSC 13/08 Q1013 RE//

2020/05/23 00:25
EHDV 230025Z AUTO 24022KT //// // ///////// 13/08 Q1013 RE//

2020/05/23 00:25
EHAK 230025Z AUTO 23026KT 9999 NCD 13/08 Q1011

2020/05/23 00:25
EHAM 230025Z 24016KT CAVOK 14/09 Q1018 NOSIG

2020/05/23 00:25
EHLW 230025Z AUTO 22007KT 9000 BR OVC150 13/11 Q1017 BLU

2020/05/23 00:25
EHLE 230025Z AUTO 23010KT 9999 NSC 14/08 Q1018

2020/05/23 00:25
EHKD 230025Z AUTO 22011KT 8000 BR FEW014 OVC064 13/11 Q1017 BLU

2020/05/23 00:25
EHGR 230025Z AUTO 25011KT 220V290 9999 OVC100 15/03 Q1020 BLU 10004KT CAVOK

2020/05/23 00:25
EHGG 230025Z AUTO 23007KT 9999 NSC 13/08 Q1017

2020/05/23 00:25
EHDL 230025Z AUTO 23009KT 200V280 9999 OVC100 15/02 Q1019 BLU

2020/05/23 00:25
EHBK 230025Z AUTO 22010KT 9999 NSC 14/07 Q1021

2020/05/23 00:25
EHEH 230025Z AUTO 24008KT 200V270 9999 OVC100 15/02 Q1020 BLU

2020/05/23 00:25
EHRD 230025Z AUTO 24014KT 210V270 9999 NSC 14/09 Q1019 NOSIG

2020/05/23 00:25
EHFS 230025Z AUTO 23021KT 9999 NSC 14/08 Q1019

2020/05/23 00:55
EHHW 230055Z AUTO 24011KT 210V270 9999 NSC 13/10 Q1016

2020/05/23 00:55
EHSC 230055Z AUTO 24026KT 7000 ///////// 13/11 Q1018 W13/H18

2020/05/23 00:55
EHSA 230055Z AUTO 22023KT 9000 ///////// 13/11 Q1019 W10/H18

2020/05/23 00:55
EHPG 230055Z AUTO 25023KT 8000 NSC 13/11 Q1017

2020/05/23 00:55
EHMG 230055Z AUTO 24017KT 9999 NSC 14/08 Q1016

2020/05/23 00:55
EHMA 230055Z AUTO 23015KT 9000 NSC 15/12 Q1017

2020/05/23 00:55
EHKV 230055Z AUTO 25030KT 9999 NSC 14/07 Q1017

2020/05/23 00:55
EHJR 230055Z AUTO 25026KT //// // ///////// 13/07 Q1016 RE// W11/H15

2020/05/23 00:55
EHQE 230055Z AUTO 21016KT 9999 NSC 13/10 Q1017

2020/05/23 00:55
EHWO 230055Z AUTO 24012KT 200V280 9999 FEW097 OVC100 14/05 Q1020 BLU

2020/05/23 00:55
EHVL 230055Z AUTO 23015KT 9999 BKN064 OVC170 13/09 Q1016 BLU

2020/05/23 00:55
EHVK 230055Z AUTO 24008KT 9999 OVC100 14/02 Q1019 BLU

2020/05/23 00:55
EHJA 230055Z AUTO 22030KT 9999 NSC 13/08 Q1014

2020/05/23 00:55
EHFZ 230055Z AUTO 23025KT 9999 NSC 13/08 Q1014

2020/05/23 00:55
EHFD 230055Z AUTO 00000KT 9999 NSC 13/08 Q1013

2020/05/23 00:55
EHDV 230055Z AUTO 24022KT //// // ///////// 13/08 Q1013 RE//

2020/05/23 00:55
EHAK 230055Z AUTO 24025KT 9999 NCD 13/08 Q1011

2020/05/23 00:55
EHAM 230055Z 24014KT 9999 FEW018 14/10 Q1018 NOSIG

2020/05/23 00:55
EHLW 230055Z AUTO 22006KT 8000 BR BKN070 BKN180 13/11 Q1017 BLU

2020/05/23 00:55
EHLE 230055Z AUTO 23010KT 210V270 9999 NSC 14/08 Q1018

2020/05/23 00:55
EHKD 230055Z AUTO 23010KT 200V260 8000 BR BKN066 OVC072 13/11 Q1017 BLU

2020/05/23 00:55
EHGR 230055Z AUTO 25010KT 220V290 9999 SCT089 BKN095 OVC100 15/04 Q1020 BLU 10004KT CAVOK

2020/05/23 00:55
EHGG 230055Z AUTO 23008KT 9999 NSC 13/09 Q1017

2020/05/23 00:55
EHDL 230055Z AUTO 24009KT 200V300 9999 BKN098 OVC100 15/03 Q1019 BLU

2020/05/23 00:55
EHBK 230055Z AUTO 22009KT 9999 NSC 13/06 Q1021

2020/05/23 00:55
EHEH 230055Z AUTO 23007KT 200V260 9999 OVC100 14/02 Q1020 BLU

2020/05/23 00:55
EHRD 230055Z AUTO 24016KT 210V270 9999 NSC 14/09 Q1019 NOSIG

2020/05/23 00:55
EHFS 230055Z AUTO 23021KT 9999 NSC 14/08 Q1019

2020/05/23 01:25
EHHW 230125Z AUTO 24009KT 200V310 9999 NSC 13/10 Q1015

2020/05/23 01:25
EHSC 230125Z AUTO 24024KT 7000 ///////// 13/11 Q1018 W12/H16

2020/05/23 01:25
EHSA 230125Z AUTO 22022KT 9999 ///////// 13/11 Q1019 W10/H18

2020/05/23 01:25
EHPG 230125Z AUTO 25023KT 8000 -RA NSC 13/11 Q1017

2020/05/23 01:25
EHMG 230125Z AUTO 25015KT 9999 NSC 13/08 Q1016

2020/05/23 01:25
EHMA 230125Z AUTO 25016KT 9999 NSC 15/09 Q1016

2020/05/23 01:25
EHKV 230125Z AUTO 25032KT 9999 NSC 13/07 Q1017

2020/05/23 01:25
EHJR 230125Z AUTO 25028KT //// // ///////// 13/07 Q1016 RE// W11/H17

2020/05/23 01:25
EHQE 230125Z AUTO 21018KT 9999 NSC 14/08 Q1017

2020/05/23 01:25
EHWO 230125Z AUTO 24013KT 9999 FEW072 SCT083 BKN090 14/06 Q1020 BLU

2020/05/23 01:25
EHVL 230125Z AUTO 23016KT 9999 BKN070 OVC170 13/09 Q1016 BLU

2020/05/23 01:25
EHVK 230125Z AUTO 24009KT 210V280 9999 OVC100 14/03 Q1019 BLU

2020/05/23 01:25
EHJA 230125Z AUTO 23032KT 9999 NSC 13/07 Q1014

2020/05/23 01:25
EHFZ 230125Z AUTO 23024KT 9999 NSC 13/08 Q1014

2020/05/23 01:25
EHFD 230125Z AUTO 00000KT 9999 NSC 13/08 Q1013

2020/05/23 01:25
EHDV 230125Z AUTO 24023KT //// // ///////// 12/08 Q1013 RE//

2020/05/23 01:25
EHAK 230125Z AUTO 24025KT 9999 NCD 13/08 Q1011

2020/05/23 01:25
EHAM 230125Z 24014KT CAVOK 14/10 Q1018 NOSIG

2020/05/23 01:25
EHLW 230125Z AUTO 22006KT 8000 BR OVC069 13/11 Q1017 BLU

2020/05/23 01:25
EHLE 230125Z AUTO 23011KT 9999 NSC 14/09 Q1018

2020/05/23 01:25
EHKD 230125Z AUTO 23009KT 200V260 8000 BR BKN060 OVC068 13/11 Q1017 BLU

2020/05/23 01:25
EHGR 230125Z AUTO 25009KT 220V290 9999 OVC098 14/04 Q1020 BLU 10004KT CAVOK

2020/05/23 01:25
EHGG 230125Z AUTO 24008KT 210V270 9999 NSC 13/09 Q1017

2020/05/23 01:25
EHDL 230125Z AUTO 23010KT 170V270 9999 OVC100 14/04 Q1019 BLU

2020/05/23 01:25
EHBK 230125Z AUTO 22009KT 9999 NSC 13/06 Q1021

2020/05/23 01:25
EHEH 230125Z AUTO 23007KT 210V270 9999 OVC100 14/03 Q1020 BLU

2020/05/23 01:25
EHRD 230125Z AUTO 24013KT 220V280 9999 NSC 14/10 Q1019 NOSIG

2020/05/23 01:25
EHFS 230125Z AUTO 24020KT 9999 NSC 14/08 Q1019

2020/05/23 01:55
EHHW 230155Z AUTO 24009KT 200V290 9999 NSC 13/09 Q1016

2020/05/23 01:55
EHSC 230155Z AUTO 25024KT 7000 ///////// 13/11 Q1018 W12/H17

2020/05/23 01:55
EHSA 230155Z AUTO 22022KT 9999 ///////// 13/10 Q1019 W10/H16

2020/05/23 01:55
EHPG 230155Z AUTO 24021KT 8000 NSC 13/11 Q1018

2020/05/23 01:55
EHMG 230155Z AUTO 24013KT 9999 NSC 13/08 Q1016

2020/05/23 01:55
EHMA 230155Z AUTO 25015KT 9999 NSC 15/09 Q1017

2020/05/23 01:55
EHKV 230155Z AUTO 25030KT 9999 NSC 13/07 Q1017

2020/05/23 01:55
EHJR 230155Z AUTO 25027KT //// // ///////// 13/07 Q1016 RE// W11/H16

2020/05/23 01:55
EHQE 230155Z AUTO 21021KT 9999 NSC 14/08 Q1017

2020/05/23 01:55
EHWO 230155Z AUTO 24011KT 9999 FEW059 SCT079 BKN085 14/06 Q1020 BLU

2020/05/23 01:55
EHVL 230155Z AUTO 24016KT 9999 BKN062 OVC068 14/08 Q1016 BLU

2020/05/23 01:55
EHVK 230155Z AUTO 23008KT 200V260 9999 OVC094 13/03 Q1019 BLU

2020/05/23 01:55
EHJA 230155Z AUTO 22032KT 9999 NSC 13/08 Q1014

2020/05/23 01:55
EHFZ 230155Z AUTO 23025KT 9999 NSC 13/08 Q1014

2020/05/23 01:55
EHFD 230155Z AUTO 00000KT 9999 NSC 12/08 Q1013

2020/05/23 01:55
EHDV 230155Z AUTO 23023KT //// // ///////// 12/08 Q1013 RE//

2020/05/23 01:55
EHAK 230155Z AUTO 24028KT 9999 NCD 13/08 Q1011

2020/05/23 01:55
EHAM 230155Z 24014KT 210V270 9000 FEW018 14/10 Q1018 NOSIG

2020/05/23 01:55
EHLW 230155Z AUTO 22007KT 8000 BR FEW067 SCT073 BKN079 13/11 Q1017 BLU

2020/05/23 01:55
EHLE 230155Z AUTO 24009KT 9999 NSC 14/09 Q1018

2020/05/23 01:55
EHKD 230155Z AUTO 22008KT 8000 BR BKN057 OVC062 13/11 Q1017 BLU

2020/05/23 01:55
EHGR 230155Z AUTO 24007KT 210V280 9999 FEW085 BKN091 BKN097 14/05 Q1020 BLU 10004KT CAVOK

2020/05/23 01:55
EHGG 230155Z AUTO 24007KT 9999 NSC 13/10 Q1017

2020/05/23 01:55
EHDL 230155Z AUTO 23010KT 180V290 9999 OVC100 14/04 Q1019 BLU

2020/05/23 01:55
EHBK 230155Z AUTO 22009KT 9999 NSC 13/06 Q1021

2020/05/23 01:55
EHEH 230155Z AUTO 23008KT 190V260 9999 OVC100 14/03 Q1020 BLU

2020/05/23 01:55
EHRD 230155Z AUTO 24014KT 210V290 9999 NSC 14/10 Q1019 NOSIG

2020/05/23 01:55
EHFS 230155Z AUTO 24020KT 9999 NSC 14/08 Q1019

2020/05/23 02:13
EHLW 230213Z AUTO 21006KT 7000 BR BKN066 BKN073 OVC079 13/11 Q1017 WHT

2020/05/23 02:17
EHLW 230217Z AUTO 21006KT 8000 BR BKN065 BKN073 BKN079 13/11 Q1017 BLU

2020/05/23 02:25
EHHW 230225Z AUTO 24010KT 210V280 9999 NSC 13/09 Q1016

2020/05/23 02:25
EHSC 230225Z AUTO 25024KT 7000 ///////// 13/11 Q1018 W13/H16

2020/05/23 02:25
EHSA 230225Z AUTO 22023KT 9999 ///////// 13/10 Q1019 W10/H17

2020/05/23 02:25
EHPG 230225Z AUTO 25019KT 8000 NSC 12/11 Q1017

2020/05/23 02:25
EHMG 230225Z AUTO 24017KT 9999 NSC 13/08 Q1016

2020/05/23 02:25
EHMA 230225Z AUTO 26018KT 9999 NSC 15/07 Q1017

2020/05/23 02:25
EHKV 230225Z AUTO 24028KT 9999 NSC 13/07 Q1018

2020/05/23 02:25
EHJR 230225Z AUTO 25025KT //// // ///////// 13/07 Q1016 RE// W11/H17

2020/05/23 02:25
EHQE 230225Z AUTO 20019KT 9999 NSC 13/08 Q1017

2020/05/23 02:25
EHWO 230225Z AUTO 24011KT 220V280 9999 FEW094 OVC100 14/06 Q1020 BLU

2020/05/23 02:25
EHVL 230225Z AUTO 25017KT 9999 BKN064 BKN071 OVC088 13/08 Q1017 BLU

2020/05/23 02:25
EHVK 230225Z AUTO 23009KT 210V270 9999 SCT089 OVC095 13/03 Q1019 BLU

2020/05/23 02:25
EHJA 230225Z AUTO 22027KT 9999 NSC 12/08 Q1014

2020/05/23 02:25
EHFZ 230225Z AUTO 24026KT 9999 NSC 13/08 Q1014

2020/05/23 02:25
EHFD 230225Z AUTO 00000KT 9999 NSC 12/08 Q1013

2020/05/23 02:25
EHDV 230225Z AUTO 23023KT //// // ///////// 12/08 Q1013 RE//

2020/05/23 02:25
EHAK 230225Z AUTO 24027KT 9999 NCD 12/08 Q1011

2020/05/23 02:25
EHAM 230225Z 25013KT 220V290 9000 FEW018 SCT048 14/10 Q1018 NOSIG

2020/05/23 02:25
EHLW 230225Z AUTO 21006KT 8000 BR SCT065 BKN074 BKN081 13/11 Q1017 BLU

2020/05/23 02:25
EHLE 230225Z AUTO 25010KT 9999 NSC 14/10 Q1018

2020/05/23 02:25
EHKD 230225Z AUTO 22009KT 9999 BKN051 OVC056 13/10 Q1017 BLU

2020/05/23 02:25
EHGR 230225Z AUTO 25007KT 210V290 9999 FEW070 SCT084 BKN095 14/05 Q1020 BLU 10004KT CAVOK

2020/05/23 02:25
EHGG 230225Z AUTO 23007KT 9000 NSC 13/10 Q1017

2020/05/23 02:25
EHDL 230225Z AUTO 24009KT 190V300 9999 FEW086 BKN093 OVC100 14/05 Q1019 BLU

2020/05/23 02:25
EHBK 230225Z AUTO 22010KT 9999 NSC 13/06 Q1021

2020/05/23 02:25
EHEH 230225Z AUTO 23009KT 200V270 9999 BKN097 OVC100 13/04 Q1020 BLU

2020/05/23 02:25
EHRD 230225Z AUTO 25012KT 220V290 9999 NSC 14/10 Q1019 NOSIG

2020/05/23 02:25
EHFS 230225Z AUTO 24019KT 9999 NSC 14/09 Q1019

2020/05/23 02:28
EHLW 230228Z AUTO 21005KT 7000 BR BKN065 BKN073 OVC084 13/11 Q1017 WHT

2020/05/23 02:33
EHLW 230233Z AUTO 21005KT 8000 BR OVC065 13/11 Q1017 BLU

2020/05/23 02:43
EHLW 230243Z AUTO 21006KT 8000 BR OVC066 13/11 Q1017 BLU

2020/05/23 02:55
EHHW 230255Z AUTO 23013KT 200V270 9999 NSC 13/08 Q1016

2020/05/23 02:55
EHSC 230255Z AUTO 24024KT 7000 ///////// 13/11 Q1018 W13/H17

2020/05/23 02:55
EHSA 230255Z AUTO 22024KT 9999 ///////// 13/10 Q1019 W10/H16

2020/05/23 02:55
EHPG 230255Z AUTO 25019KT 8000 NSC 12/11 Q1018

2020/05/23 02:55
EHMG 230255Z AUTO 25019KT 9999 NSC 13/08 Q1016

2020/05/23 02:55
EHMA 230255Z AUTO 25016KT 9999 NSC 15/07 Q1017

2020/05/23 02:55
EHKV 230255Z AUTO 16027KT 9999 NSC 13/07 Q1018

2020/05/23 02:55
EHJR 230255Z AUTO 24024KT //// // ///////// 13/07 Q1016 RE// W11/H15

2020/05/23 02:55
EHQE 230255Z AUTO 21021KT 9999 NSC 13/08 Q1017

2020/05/23 02:55
EHWO 230255Z AUTO 24010KT 9999 FEW092 OVC100 14/06 Q1020 BLU

2020/05/23 02:55
EHVL 230255Z AUTO 24016KT 9999 BKN060 OVC065 13/08 Q1017 BLU

2020/05/23 02:55
EHVK 230255Z AUTO 23008KT 9999 FEW080 BKN085 OVC091 13/04 Q1019 BLU

2020/05/23 02:55
EHJA 230255Z AUTO 22025KT 9999 NSC 12/08 Q1014

2020/05/23 02:55
EHFZ 230255Z AUTO 23026KT 9999 NSC 13/08 Q1014

2020/05/23 02:55
EHFD 230255Z AUTO 00000KT 9999 NSC 12/08 Q1013

2020/05/23 02:55
EHDV 230255Z AUTO 23023KT //// // ///////// 12/08 Q1013 RE//

2020/05/23 02:55
EHAK 230255Z AUTO 23025KT 9999 NCD 12/09 Q1011

2020/05/23 02:55
EHAM 230255Z 25012KT 220V280 9000 FEW016 SCT048 13/10 Q1018 NOSIG

2020/05/23 02:55
EHLW 230255Z AUTO 22006KT 9000 BR BKN067 OVC073 13/11 Q1017 BLU

2020/05/23 02:55
EHLE 230255Z AUTO 25012KT 9999 NSC 14/10 Q1018

2020/05/23 02:55
EHKD 230255Z AUTO 22011KT 9999 FEW044 BKN057 OVC064 13/10 Q1017 BLU

2020/05/23 02:55
EHGR 230255Z AUTO 24006KT 220V280 9999 OVC100 14/06 Q1020 BLU 10004KT CAVOK

2020/05/23 02:55
EHGG 230255Z AUTO 23006KT 9000 NSC 12/10 Q1017

2020/05/23 02:55
EHDL 230255Z AUTO 24008KT 190V290 9999 OVC100 14/06 Q1019 BLU

2020/05/23 02:55
EHBK 230255Z AUTO 22010KT 9999 NSC 13/05 Q1021

2020/05/23 02:55
EHEH 230255Z AUTO 25006KT 210V290 9999 SCT080 BKN086 13/04 Q1020 BLU

2020/05/23 02:55
EHRD 230255Z AUTO 24013KT 220V280 9999 FEW021 14/10 Q1019 NOSIG

2020/05/23 02:55
EHFS 230255Z AUTO 25025KT 220V280 9000 NSC 14/10 Q1019

2020/05/23 03:25
EHHW 230325Z AUTO 24012KT 200V290 9999 NSC 13/08 Q1016

2020/05/23 03:25
EHSC 230325Z AUTO 25023KT 7000 ///////// 13/11 Q1019 W13/H16

2020/05/23 03:25
EHSA 230325Z AUTO 22022KT 9999 ///////// 13/10 Q1019 W10/H16

2020/05/23 03:25
EHPG 230325Z AUTO 24021KT 9000 NSC 12/11 Q1018

2020/05/23 03:25
EHMG 230325Z AUTO 25022KT 9999 NSC 13/08 Q1016

2020/05/23 03:25
EHMA 230325Z AUTO 26014KT 9999 FEW029CB 14/07 Q1017

2020/05/23 03:25
EHKV 230325Z AUTO 24025KT 9999 NSC 13/08 Q1018

2020/05/23 03:25
EHJR 230325Z AUTO 24025KT //// // ///////// 12/08 Q1016 RE// W11/H15

2020/05/23 03:25
EHQE 230325Z AUTO 21022KT 9999 NSC 13/08 Q1017

2020/05/23 03:25
EHWO 230325Z AUTO 25009KT 220V280 9999 BKN090 OVC095 13/07 Q1020 BLU

2020/05/23 03:25
EHVL 230325Z AUTO 24016KT 9999 BKN067 OVC073 13/07 Q1017 BLU

2020/05/23 03:25
EHVK 230325Z AUTO 24006KT 9999 SCT071 BKN079 BKN087 13/04 Q1020 BLU

2020/05/23 03:25
EHJA 230325Z AUTO 22025KT 9999 NSC 12/08 Q1014

2020/05/23 03:25
EHFZ 230325Z AUTO 23025KT 9999 NSC 13/08 Q1014

2020/05/23 03:25
EHFD 230325Z AUTO 00000KT 9999 NSC 12/08 Q1013

2020/05/23 03:25
EHDV 230325Z AUTO 23024KT //// // ///////// 12/08 Q1013 RE//

2020/05/23 03:25
EHAK 230325Z AUTO 23028KT 9999 NCD 12/08 Q1011

2020/05/23 03:25
EHAM 230325Z 25013KT 220V280 9999 FEW016 BKN037 14/10 Q1019 NOSIG

2020/05/23 03:25
EHLW 230325Z AUTO 26010KT 220V280 9999 BKN052 BKN059 OVC064 14/07 Q1017 BLU

2020/05/23 03:25
EHLE 230325Z AUTO 25010KT 9000 NSC 14/10 Q1018

2020/05/23 03:25
EHKD 230325Z AUTO 23011KT 200V260 9999 OVC058 13/09 Q1017 BLU

2020/05/23 03:25
EHGR 230325Z AUTO 24005KT 220V280 9999 BKN099 OVC100 14/06 Q1020 BLU 10004KT CAVOK

2020/05/23 03:25
EHGG 230325Z AUTO 23007KT 8000 NSC 12/10 Q1017

2020/05/23 03:25
EHDL 230325Z AUTO 24008KT 170V320 9999 OVC091 14/07 Q1019 BLU

2020/05/23 03:25
EHBK 230325Z AUTO 21010KT 9999 NSC 13/05 Q1021

2020/05/23 03:25
EHEH 230325Z AUTO 23006KT 210V270 9999 FEW075 BKN092 OVC100 13/05 Q1020 BLU

2020/05/23 03:25
EHRD 230325Z AUTO 25013KT 210V270 9999 NSC 13/10 Q1019 NOSIG

2020/05/23 03:25
EHFS 230325Z AUTO 25025KT 8000 NSC 14/11 Q1020

2020/05/23 03:55
EHHW 230355Z AUTO 24012KT 210V300 9999 NSC 13/08 Q1016

2020/05/23 03:55
EHSC 230355Z AUTO 25021KT 8000 ///////// 13/11 Q1019 W13/H15

2020/05/23 03:55
EHSA 230355Z AUTO 23023KT 9999 ///////// 13/10 Q1019 W10/H15

2020/05/23 03:55
EHPG 230355Z AUTO 25021KT 9000 NSC 12/11 Q1018

2020/05/23 03:55
EHMG 230355Z AUTO 25023KT 9999 NSC 13/08 Q1016

2020/05/23 03:55
EHMA 230355Z AUTO 25014KT 9999 FEW028CB 14/07 Q1017

2020/05/23 03:55
EHKV 230355Z AUTO 24026KT 9999 NSC 12/08 Q1018

2020/05/23 03:55
EHJR 230355Z AUTO 24023KT //// // ///////// 12/08 Q1017 RE// W11/H16

2020/05/23 03:55
EHQE 230355Z AUTO 21024KT 9999 NSC 13/08 Q1017

2020/05/23 03:55
EHWO 230355Z AUTO 25011KT 220V290 9999 FEW085 OVC100 13/07 Q1020 BLU

2020/05/23 03:55
EHVL 230355Z AUTO 24016KT 9999 BKN069 OVC074 13/08 Q1017 BLU

2020/05/23 03:55
EHVK 230355Z AUTO 23006KT 9999 FEW089 OVC095 12/05 Q1020 BLU

2020/05/23 03:55
EHJA 230355Z AUTO 23029KT 9999 NSC 12/08 Q1014

2020/05/23 03:55
EHFZ 230355Z AUTO 23026KT 9999 NSC 12/08 Q1014

2020/05/23 03:55
EHFD 230355Z AUTO 00000KT 9999 NSC 12/08 Q1013

2020/05/23 03:55
EHDV 230355Z AUTO 24023KT //// // ///////// 12/08 Q1013 RE//

2020/05/23 03:55
EHAK 230355Z AUTO 23027KT 9999 NCD 12/08 Q1011

2020/05/23 03:55
EHAM 230355Z 25012KT 210V270 9999 FEW037 13/10 Q1019 NOSIG

2020/05/23 03:55
EHLW 230355Z AUTO 26012KT 230V290 9999 BKN050 OVC055 14/07 Q1017 BLU

2020/05/23 03:55
EHLE 230355Z AUTO 24009KT 9000 OVC041 13/10 Q1019

2020/05/23 03:55
EHKD 230355Z AUTO 23009KT 9999 FEW058 SCT064 OVC140 13/10 Q1018 BLU

2020/05/23 03:55
EHGR 230355Z AUTO 24004KT 200V270 9999 BKN095 OVC100 13/06 Q1020 BLU 10004KT CAVOK

2020/05/23 03:55
EHGG 230355Z AUTO 22006KT 7000 NSC 12/10 Q1017

2020/05/23 03:55
EHDL 230355Z AUTO 24007KT 190V290 9999 FEW099 OVC100 13/08 Q1019 BLU

2020/05/23 03:55
EHBK 230355Z AUTO 22011KT 9999 NSC 13/06 Q1021 NOSIG

2020/05/23 03:55
EHEH 230355Z AUTO 22005KT 9999 FEW093 BKN098 OVC100 12/05 Q1020 BLU

2020/05/23 03:55
EHRD 230355Z AUTO 24012KT 200V270 9999 SCT015 13/10 Q1019 NOSIG

2020/05/23 03:55
EHFS 230355Z AUTO 24023KT 7000 SCT012/// 14/11 Q1020

2020/05/23 04:25
EHHW 230425Z AUTO 24014KT 200V270 9999 NSC 13/08 Q1016

2020/05/23 04:25
EHSC 230425Z AUTO 25021KT 9000 ///////// 13/10 Q1019 W13/H15

2020/05/23 04:25
EHSA 230425Z AUTO 23022KT 9999 ///////// 13/10 Q1019 W10/H16

2020/05/23 04:25
EHPG 230425Z AUTO 25023KT 9999 NSC 13/10 Q1018

2020/05/23 04:25
EHMG 230425Z AUTO 25022KT 9999 NSC 13/08 Q1017

2020/05/23 04:25
EHMA 230425Z AUTO 25014KT 9999 NSC 14/07 Q1017

2020/05/23 04:25
EHKV 230425Z AUTO 24027KT 9999 NSC 12/08 Q1018

2020/05/23 04:25
EHJR 230425Z AUTO 24025KT //// // ///////// 12/08 Q1017 RE// W11/H16

2020/05/23 04:25
EHQE 230425Z AUTO 22026KT 9999 NSC 13/08 Q1017

2020/05/23 04:25
EHWO 230425Z AUTO 24009KT 9999 FEW080 BKN086 OVC093 13/08 Q1020 BLU

2020/05/23 04:25
EHVL 230425Z AUTO 25019KT 9999 OVC063 13/08 Q1017 BLU

2020/05/23 04:25
EHVK 230425Z AUTO 22007KT 9999 SCT088 BKN094 OVC100 13/05 Q1020 BLU

2020/05/23 04:25
EHJA 230425Z AUTO 23029KT 9999 NSC 12/08 Q1014

2020/05/23 04:25
EHFZ 230425Z AUTO 23025KT 9999 NSC 12/08 Q1014

2020/05/23 04:25
EHFD 230425Z AUTO 00000KT 9999 NSC 12/08 Q1013

2020/05/23 04:25
EHDV 230425Z AUTO 24024KT //// // ///////// 12/08 Q1013 RE//

2020/05/23 04:25
EHAK 230425Z AUTO 23028KT 200V260 9999 NCD 12/09 Q1011

2020/05/23 04:25
EHAM 230425Z 24010KT 210V280 9999 FEW015 13/10 Q1019 NOSIG

2020/05/23 04:25
EHLW 230425Z AUTO 23008KT 190V250 9999 BKN059 OVC065 13/09 Q1017 BLU

2020/05/23 04:25
EHLE 230425Z AUTO 24008KT 9000 FEW045 13/10 Q1019

2020/05/23 04:25
EHKD 230425Z AUTO 24012KT 210V280 9999 SCT051 BKN057 OVC130 13/09 Q1018 BLU

2020/05/23 04:25
EHGR 230425Z AUTO 24005KT 220V290 9999 FEW085 SCT092 OVC098 13/07 Q1020 BLU 10004KT CAVOK

2020/05/23 04:25
EHGG 230425Z AUTO 23006KT 7000 NSC 12/10 Q1018 BECMG 8000

2020/05/23 04:25
EHDL 230425Z AUTO 24006KT 200V290 9999 BKN020 OVC100 13/08 Q1019 WHT

2020/05/23 04:25
EHBK 230425Z AUTO 23009KT 9999 NSC 13/06 Q1021 NOSIG

2020/05/23 04:25
EHEH 230425Z AUTO 23007KT 200V260 9999 BKN086 OVC091 13/06 Q1020 BLU

2020/05/23 04:25
EHRD 230425Z AUTO 24011KT 9999 SCT015 13/10 Q1019 NOSIG

2020/05/23 04:25
EHFS 230425Z AUTO 24019KT 8000 FEW016/// 14/10 Q1020

2020/05/23 04:55
EHHW 230455Z AUTO 24012KT 210V280 9999 NSC 12/08 Q1016

2020/05/23 04:55
EHSC 230455Z AUTO 25021KT 9000 ///////// 13/10 Q1019 W13/H14

2020/05/23 04:55
EHSA 230455Z AUTO 23022KT 9999 ///////// 13/10 Q1020 W10/H14

2020/05/23 04:55
EHPG 230455Z AUTO 24022KT 9999 NSC 12/11 Q1018

2020/05/23 04:55
EHMG 230455Z AUTO 24022KT 9999 NSC 13/08 Q1017

2020/05/23 04:55
EHMA 230455Z AUTO 26015KT 9999 NSC 14/07 Q1017

2020/05/23 04:55
EHKV 230455Z AUTO 16027KT 9999 NSC 12/08 Q1018

2020/05/23 04:55
EHJR 230455Z AUTO 24025KT //// // ///////// 12/08 Q1017 RE// W11/H16

2020/05/23 04:55
EHQE 230455Z AUTO 21025KT 9999 NSC 13/08 Q1017

2020/05/23 04:55
EHWO 230455Z AUTO 24009KT 200V270 9999 OVC100 13/08 Q1021 BLU

2020/05/23 04:55
EHVL 230455Z AUTO 25019KT 9999 BKN064 OVC170 13/08 Q1017 BLU

2020/05/23 04:55
EHVK 230455Z AUTO 23006KT 200V270 9999 SCT079 BKN087 BKN094 13/06 Q1020 BLU

2020/05/23 04:55
EHJA 230455Z AUTO 23030KT 9999 NCD 12/08 Q1014

2020/05/23 04:55
EHFZ 230455Z AUTO 23023KT 9999 NSC 12/08 Q1015

2020/05/23 04:55
EHFD 230455Z AUTO 00000KT 9999 NSC 12/08 Q1013

2020/05/23 04:55
EHDV 230455Z AUTO 24022KT //// // ///////// 12/08 Q1013 RE//

2020/05/23 04:55
EHAK 230455Z AUTO 22028KT 190V250 9999 NCD 12/09 Q1011

2020/05/23 04:55
EHAM 230455Z 24012KT 210V270 9999 FEW013 13/10 Q1019 NOSIG

2020/05/23 04:55
EHLW 230455Z AUTO 24009KT 210V270 9999 BKN063 OVC069 14/08 Q1017 BLU

2020/05/23 04:55
EHLE 230455Z AUTO 24008KT 9000 FEW048 13/10 Q1019

2020/05/23 04:55
EHKD 230455Z AUTO 25015KT 220V290 9999 OVC160 13/07 Q1018 BLU

2020/05/23 04:55
EHGR 230455Z AUTO 23006KT 210V270 9999 OVC099 13/07 Q1020 BLU 10004KT CAVOK

2020/05/23 04:55
EHGG 230455Z AUTO 23007KT 8000 NSC 13/11 Q1018 NOSIG

2020/05/23 04:55
EHDL 230455Z AUTO 24006KT 200V280 9999 SCT019 BKN099 OVC100 13/09 Q1019 WHT

2020/05/23 04:55
EHBK 230455Z AUTO 23010KT 200V260 9999 NSC 13/06 Q1021 NOSIG

2020/05/23 04:55
EHEH 230455Z AUTO 23009KT 190V260 9999 FEW072 SCT078 BKN089 13/06 Q1021 BLU

2020/05/23 04:55
EHRD 230455Z AUTO 25010KT 220V280 9999 NSC 13/10 Q1019 NOSIG

2020/05/23 04:55
EHFS 230455Z AUTO 25023KT 220V280 9000 FEW017/// 14/10 Q1020

2020/05/23 05:11
EHEH 230511Z AUTO 23009KT 200V270 9999 FEW081 BKN090 OVC096 13/06 Q1021 BLU 24008KT CAVOK

2020/05/23 05:25
EHHW 230525Z AUTO 24011KT 200V310 9999 NSC 12/09 Q1016

2020/05/23 05:25
EHSC 230525Z AUTO 25021KT 9000 ///////// 13/10 Q1019 W13/H13

2020/05/23 05:25
EHSA 230525Z AUTO 23023KT 9999 ///////// 13/10 Q1020 W10/H14

2020/05/23 05:25
EHPG 230525Z AUTO 24022KT 9000 NSC 12/10 Q1019

2020/05/23 05:25
EHMG 230525Z AUTO 24023KT 9999 NSC 13/08 Q1017

2020/05/23 05:25
EHMA 230525Z AUTO 25016KT 9999 NSC 14/07 Q1017

2020/05/23 05:25
EHKV 230525Z AUTO 16028KT 9999 NSC 12/08 Q1018

2020/05/23 05:25
EHJR 230525Z AUTO 24025KT //// // ///////// 12/08 Q1017 RE// W11/H16

2020/05/23 05:25
EHQE 230525Z AUTO 21023KT 9999 NSC 13/09 Q1018

2020/05/23 05:25
EHWO 230525Z AUTO 24009KT 9999 FEW096 OVC100 13/09 Q1021 BLU

2020/05/23 05:25
EHVL 230525Z AUTO 25020KT 9999 OVC190 13/08 Q1017 BLU

2020/05/23 05:25
EHVK 230525Z AUTO 23008KT 9999 FEW093 BKN098 OVC100 13/06 Q1020 BLU

2020/05/23 05:25
EHJA 230525Z AUTO 23031KT 9999 NCD 12/08 Q1015

2020/05/23 05:25
EHFZ 230525Z AUTO 24022KT 9999 NSC 12/08 Q1015

2020/05/23 05:25
EHFD 230525Z AUTO 00000KT 9999 NCD 12/08 Q1013

2020/05/23 05:25
EHDV 230525Z AUTO 24022KT //// // ///////// 12/08 Q1014 RE//

2020/05/23 05:25
EHAK 230525Z AUTO 22027KT 9999 NCD 12/09 Q1011

2020/05/23 05:25
EHAM 230525Z 24012KT 210V270 9999 FEW013 13/10 Q1019 NOSIG

2020/05/23 05:25
EHLW 230525Z AUTO 26012KT 9999 SCT056 BKN061 OVC067 14/07 Q1018 BLU

2020/05/23 05:25
EHLE 230525Z AUTO 23008KT 200V260 9000 OVC035 14/11 Q1019 NOSIG

2020/05/23 05:25
EHKD 230525Z AUTO 24014KT 220V280 9999 OVC170 13/08 Q1018 BLU 24013KT 9999 FEW045 BECMG 24015G27KT

2020/05/23 05:25
EHGR 230525Z AUTO 24007KT 210V290 9999 BKN096 OVC100 14/07 Q1021 BLU 10004KT CAVOK

2020/05/23 05:25
EHGG 230525Z AUTO 23008KT 8000 NSC 13/11 Q1018 NOSIG

2020/05/23 05:25
EHDL 230525Z AUTO 23008KT 180V280 9999 OVC018 14/09 Q1020 WHT

2020/05/23 05:25
EHBK 230525Z AUTO 23011KT 9999 NSC 13/07 Q1022 NOSIG

2020/05/23 05:25
EHEH 230525Z AUTO 23008KT 200V290 9999 SCT089 BKN095 OVC100 14/06 Q1021 BLU 24008KT CAVOK

2020/05/23 05:25
EHRD 230525Z AUTO 24012KT 210V280 9999 SCT047 14/10 Q1020 NOSIG

2020/05/23 05:25
EHFS 230525Z AUTO 24023KT 8000 BKN015/// 14/10 Q1020

2020/05/23 05:55
EHHW 230555Z AUTO 26009KT 210V300 9999 NSC 13/08 Q1016

2020/05/23 05:55
EHSC 230555Z AUTO 25020KT 9000 ///////// 13/10 Q1019 W13/H14

2020/05/23 05:55
EHSA 230555Z AUTO 22024KT 9999 ///////// 13/10 Q1020 W10/H14

2020/05/23 05:55
EHPG 230555Z AUTO 24022KT 9000 NSC 12/10 Q1019

2020/05/23 05:55
EHMG 230555Z AUTO 25023KT 9999 NSC 12/09 Q1017

2020/05/23 05:55
EHMA 230555Z AUTO 25016KT 9999 NSC 14/07 Q1017

2020/05/23 05:55
EHKV 230555Z AUTO 16027KT 9999 NSC 12/08 Q1019

2020/05/23 05:55
EHJR 230555Z AUTO 24024KT //// // ///////// 12/08 Q1017 RE// W11/H17

2020/05/23 05:55
EHQE 230555Z AUTO 21025KT 9999 NSC 13/08 Q1018

2020/05/23 05:55
EHWO 230555Z AUTO 24010KT 9999 OVC110 14/09 Q1021 BLU

2020/05/23 05:55
EHVL 230555Z AUTO 25022KT 9999 OVC200 13/08 Q1017 BLU

2020/05/23 05:55
EHVK 230555Z AUTO 24010KT 200V280 9999 BKN099 OVC100 14/07 Q1021 BLU

2020/05/23 05:55
EHJA 230555Z AUTO 23030KT 9999 NCD 12/08 Q1015

2020/05/23 05:55
EHFZ 230555Z AUTO 23022KT 9999 NSC 12/08 Q1015

2020/05/23 05:55
EHFD 230555Z AUTO 00000KT 9999 NCD 11/08 Q1013

2020/05/23 05:55
EHDV 230555Z AUTO 24023KT //// // ///////// 12/08 Q1014 RE//

2020/05/23 05:55
EHAK 230555Z AUTO 23029KT 9999 NCD 12/08 Q1011

2020/05/23 05:55
EHAM 230555Z 25014KT 220V280 9999 FEW016 14/10 Q1019 NOSIG

2020/05/23 05:55
EHLW 230555Z AUTO 26016KT 230V290 9999 BKN060 BKN066 OVC170 14/07 Q1018 BLU

2020/05/23 05:55
EHLE 230555Z AUTO 24010KT 210V270 9999 FEW016 SCT038 14/10 Q1019 NOSIG

2020/05/23 05:55
EHKD 230555Z AUTO 23013KT 9999 OVC180 14/10 Q1018 BLU 24013KT 9999 FEW045 BECMG 24015G27KT

2020/05/23 05:55
EHGR 230555Z AUTO 24008KT 210V280 9999 OVC100 14/08 Q1021 BLU 10004KT CAVOK

2020/05/23 05:55
EHGG 230555Z AUTO 24009KT 210V270 9000 BKN047 14/10 Q1018 NOSIG

2020/05/23 05:55
EHDL 230555Z AUTO 24009KT 190V290 9999 SCT018 OVC097 14/10 Q1020 WHT

2020/05/23 05:55
EHBK 230555Z AUTO 22010KT 9999 NSC 13/07 Q1022 NOSIG

2020/05/23 05:55
EHEH 230555Z AUTO 24010KT 210V280 9999 FEW087 BKN095 OVC100 14/07 Q1021 BLU 24008KT CAVOK

2020/05/23 05:55
EHRD 230555Z AUTO 24012KT 210V290 9999 FEW021 14/10 Q1020 NOSIG

2020/05/23 05:55
EHFS 230555Z AUTO 24022KT 8000 SCT014/// BKN017/// OVC020/// 14/11 Q1021

2020/05/23 06:07
EHWO 230607Z AUTO 24014KT 9999 SCT024 OVC110 14/08 Q1021 WHT

2020/05/23 06:25
EHHW 230625Z AUTO 26013KT 220V300 9999 NSC 13/08 Q1016

2020/05/23 06:25
EHSC 230625Z AUTO 26024KT 9999 ///////// 13/09 Q1019 W13/H12

2020/05/23 06:25
EHSA 230625Z AUTO 22023KT 9999 ///////// 13/10 Q1020 W10/H13

2020/05/23 06:25
EHPG 230625Z AUTO 24024KT 9999 NSC 12/10 Q1019

2020/05/23 06:25
EHMG 230625Z AUTO 24024KT 9999 NSC 12/09 Q1017

2020/05/23 06:25
EHMA 230625Z AUTO 26018KT 9999 NSC 14/08 Q1017 REDZ

2020/05/23 06:25
EHKV 230625Z AUTO 16026KT 9999 NSC 12/08 Q1019

2020/05/23 06:25
EHJR 230625Z AUTO 24028KT //// // ///////// 12/07 Q1017 RE// W11/H17

2020/05/23 06:25
EHQE 230625Z AUTO 21025KT 9999 NSC 13/08 Q1018

2020/05/23 06:25
EHWO 230625Z AUTO 24014KT 210V270 9999 SCT020 OVC110 14/09 Q1021 WHT

2020/05/23 06:25
EHVL 230625Z AUTO 25022KT 9999 OVC220 13/08 Q1018 BLU

2020/05/23 06:25
EHVK 230625Z AUTO 24009KT 200V280 9999 FEW090 SCT098 OVC100 14/07 Q1021 BLU

2020/05/23 06:25
EHJA 230625Z AUTO 23029KT 9999 NCD 12/08 Q1015

2020/05/23 06:25
EHFZ 230625Z AUTO 23023KT 9999 NSC 12/08 Q1015

2020/05/23 06:25
EHFD 230625Z AUTO 00000KT 9999 NCD 11/08 Q1013

2020/05/23 06:25
EHDV 230625Z AUTO 24023KT //// // ///////// 11/08 Q1013 RE//

2020/05/23 06:25
EHAK 230625Z AUTO 23029KT 200V260 9999 NCD 11/08 Q1011

2020/05/23 06:25
EHAM 230625Z 25014KT 210V280 9999 FEW021 14/09 Q1020 NOSIG

2020/05/23 06:25
EHLW 230625Z AUTO 26016KT 220V290 9999 OVC180 14/08 Q1018 BLU

2020/05/23 06:25
EHLE 230625Z AUTO 24010KT 210V270 9999 BKN016 14/11 Q1019 NOSIG

2020/05/23 06:25
EHKD 230625Z AUTO 23014KT 200V260 9999 BKN160 OVC210 14/10 Q1018 BLU 24013KT 9999 FEW045 BECMG 24015G27KT

2020/05/23 06:25
EHGR 230625Z AUTO 24008KT 210V280 9999 SCT039 OVC110 14/09 Q1021 BLU 10004KT CAVOK

2020/05/23 06:25
EHGG 230625Z AUTO 24010KT 210V270 9999 SCT047 15/10 Q1018 NOSIG

2020/05/23 06:25
EHDL 230625Z AUTO 24011KT 190V280 9999 BKN016 OVC020 14/10 Q1020 WHT

2020/05/23 06:25
EHBK 230625Z AUTO 23010KT 200V270 9999 NSC 13/08 Q1022 NOSIG

2020/05/23 06:25
EHEH 230625Z AUTO 23011KT 210V290 9999 SCT080 BKN086 OVC094 14/07 Q1021 BLU 24008KT CAVOK

2020/05/23 06:25
EHRD 230625Z AUTO 25012KT 200V290 9999 SCT018 BKN022 BKN026 14/10 Q1020 NOSIG

2020/05/23 06:25
EHFS 230625Z AUTO 23017KT 9000 BKN016/// BKN020/// OVC024/// 14/10 Q1021

2020/05/23 06:32
EHWO 230632Z AUTO 24012KT 210V280 9999 FEW020 OVC130 14/09 Q1021 BLU

2020/05/23 06:55
EHHW 230655Z AUTO 26015KT 210V300 9999 NSC 12/08 Q1017

2020/05/23 06:55
EHSC 230655Z AUTO 25023KT 9999 ///////// 13/09 Q1020 W13/H12

2020/05/23 06:55
EHSA 230655Z AUTO 22024KT 9999 ///////// 13/10 Q1020 W10/H14

2020/05/23 06:55
EHPG 230655Z AUTO 24022KT 9999 -RA NSC 12/10 Q1019

2020/05/23 06:55
EHMG 230655Z AUTO 24023KT 9999 NSC 12/09 Q1017

2020/05/23 06:55
EHMA 230655Z AUTO 27019KT 9999 +DZRA NSC 14/07 Q1018

2020/05/23 06:55
EHKV 230655Z AUTO 15027KT 9999 NSC 12/08 Q1019

2020/05/23 06:55
EHJR 230655Z AUTO 24027KT //// // ///////// 12/08 Q1017 RE// W11/H17

2020/05/23 06:55
EHQE 230655Z AUTO 20024KT 9999 NSC 13/08 Q1018

2020/05/23 06:55
EHWO 230655Z AUTO 24014KT 200V280 9999 FEW020 OVC130 14/09 Q1022 BLU

2020/05/23 06:55
EHVL 230655Z AUTO 24021KT 9999 BKN170 OVC250 13/09 Q1018 BLU

2020/05/23 06:55
EHVK 230655Z AUTO 23011KT 9999 OVC100 14/08 Q1021 BLU

2020/05/23 06:55
EHJA 230655Z AUTO 23027KT 9999 NCD 12/08 Q1015

2020/05/23 06:55
EHFZ 230655Z AUTO 23022KT 9999 NCD 12/08 Q1015

2020/05/23 06:55
EHFD 230655Z AUTO 00000KT 9999 NCD 11/08 Q1013

2020/05/23 06:55
EHDV 230655Z AUTO 24022KT //// // ///////// 12/08 Q1014 RE//

2020/05/23 06:55
EHAK 230655Z AUTO 23030KT 9999 NCD 11/08 Q1011

2020/05/23 06:55
EHAM 230655Z 25017KT 9999 FEW017 14/09 Q1020 NOSIG

2020/05/23 06:55
EHLW 230655Z AUTO 26016KT 9999 BKN150 OVC200 14/07 Q1018 BLU

2020/05/23 06:55
EHLE 230655Z AUTO 25013KT 9999 BKN016 BKN023 15/11 Q1019 NOSIG

2020/05/23 06:55
EHKD 230655Z AUTO 24016KT 210V280 9999 OVC220 14/09 Q1019 BLU 24013KT 9999 FEW045 BECMG 24015G27KT

2020/05/23 06:55
EHGR 230655Z AUTO 24011KT 220V280 9999 FEW024 OVC110 14/08 Q1021 BLU 10004KT CAVOK

2020/05/23 06:55
EHGG 230655Z AUTO 25014KT 210V290 9999 SCT027 SCT031 15/09 Q1018 NOSIG

2020/05/23 06:55
EHDL 230655Z AUTO 24011KT 180V280 9999 OVC016 15/10 Q1020 WHT

2020/05/23 06:55
EHBK 230655Z AUTO 24010KT 210V270 9999 FEW049 13/08 Q1023 NOSIG

2020/05/23 06:55
EHEH 230655Z AUTO 23011KT 200V260 9999 SCT095 OVC100 14/08 Q1022 BLU 24008KT CAVOK

2020/05/23 06:55
EHRD 230655Z AUTO 24014KT 9999 SCT019 BKN023 14/09 Q1021 NOSIG

2020/05/23 06:55
EHFS 230655Z AUTO 24020KT 9000 SCT016/// BKN021/// BKN027/// 14/10 Q1021

2020/05/23 07:00
EHWO 230700Z AUTO 24014KT 200V270 9999 SCT019 OVC130 14/09 Q1021 WHT

2020/05/23 07:03
EHKD 230703Z AUTO 25016KT 9999 OVC240 14/08 Q1019 BLU 24013KT 9999 FEW020 BECMG 24015G27KT

2020/05/23 07:04
EHWO 230704Z AUTO 24014KT 9999 FEW019 OVC130 14/09 Q1021 BLU

2020/05/23 07:08
EHWO 230708Z AUTO 24014KT 210V270 9999 SCT019 SCT024 BKN130 14/09 Q1022 WHT

2020/05/23 07:13
EHWO 230713Z AUTO 23014KT 210V270 9999 FEW019 SCT022 BKN026 14/09 Q1022 WHT

2020/05/23 07:14
EHWO 230714Z AUTO 24014KT 9999 SCT019 BKN023 BKN140 14/09 Q1022 WHT

2020/05/23 07:14
EHGR 230714Z AUTO 23009KT 220V290 9999 SCT023 OVC170 14/08 Q1021 WHT 10004KT CAVOK

2020/05/23 07:25
EHHW 230725Z AUTO 26017KT 200V320 9999 NSC 12/08 Q1017

2020/05/23 07:25
EHSC 230725Z AUTO 25023KT 9999 ///////// 13/09 Q1020 W13/H13

2020/05/23 07:25
EHSA 230725Z AUTO 22023KT 9999 ///////// 13/10 Q1021 W10/H13

2020/05/23 07:25
EHPG 230725Z AUTO 24022KT 9999 NSC 12/10 Q1019

2020/05/23 07:25
EHMG 230725Z AUTO 24024KT 9999 NSC 12/08 Q1017

2020/05/23 07:25
EHMA 230725Z AUTO 27021KT 9999 DZRA FEW029 13/07 Q1018

2020/05/23 07:25
EHKV 230725Z AUTO 15029KT 9999 NCD 12/08 Q1019

2020/05/23 07:25
EHJR 230725Z AUTO 24026KT //// // ///////// 12/08 Q1017 RE// W11/H17

2020/05/23 07:25
EHQE 230725Z AUTO 20026KT 9999 NSC 13/08 Q1018

2020/05/23 07:25
EHWO 230725Z AUTO 24012KT 210V270 9999 BKN020 BKN023 OVC033 15/10 Q1022 WHT

2020/05/23 07:25
EHVL 230725Z AUTO 24022KT 9999 BKN250 14/08 Q1018 BLU

2020/05/23 07:25
EHVK 230725Z AUTO 24012KT 200V270 9999 SCT044 OVC100 15/08 Q1021 BLU

2020/05/23 07:25
EHJA 230725Z AUTO 22024KT 9999 NCD 11/08 Q1015

2020/05/23 07:25
EHFZ 230725Z AUTO 23022KT 9999 NCD 12/08 Q1015

2020/05/23 07:25
EHFD 230725Z AUTO 00000KT 9999 NCD 11/08 Q1013

2020/05/23 07:25
EHDV 230725Z AUTO 24023KT //// // ///////// 11/08 Q1014 RE//

2020/05/23 07:25
EHAK 230725Z AUTO 23029KT 9999 NCD 11/08 Q1011

2020/05/23 07:25
EHAM 230725Z 25016KT 220V290 9999 FEW017 15/10 Q1020 NOSIG

2020/05/23 07:25
EHLW 230725Z AUTO 26019KT 220V290 9999 BKN032 BKN036 OVC230 15/07 Q1018 BLU

2020/05/23 07:25
EHLE 230725Z AUTO 25015KT 9999 SCT023 BKN026 OVC032 15/10 Q1020 NOSIG

2020/05/23 07:25
EHKD 230725Z AUTO 24016KT 210V270 9999 SCT150 OVC250 13/09 Q1019 BLU 24013KT 9999 FEW020 BECMG 24015G27KT

2020/05/23 07:25
EHGR 230725Z AUTO 24010KT 190V290 9999 SCT024 OVC170 14/09 Q1022 WHT 10004KT CAVOK

2020/05/23 07:25
EHGG 230725Z AUTO 26013KT 220V300 9999 FEW029 SCT035 15/07 Q1018 BECMG 26016G29KT

2020/05/23 07:25
EHDL 230725Z AUTO 24011KT 190V310 9999 SCT019 BKN022 BKN032 15/10 Q1020 WHT

2020/05/23 07:25
EHBK 230725Z AUTO 23013KT 200V260 9999 FEW048 13/08 Q1023 NOSIG

2020/05/23 07:25
EHEH 230725Z AUTO 24012KT 210V270 9999 OVC100 14/07 Q1022 BLU 24008KT CAVOK

2020/05/23 07:25
EHRD 230725Z AUTO 25011KT 230V290 9999 SCT019 BKN023 BKN027 15/09 Q1021 NOSIG

2020/05/23 07:25
EHFS 230725Z AUTO 25025KT 9000 SCT018/// BKN021/// BKN028/// 14/09 Q1021

2020/05/23 07:26
EHEH 230726Z AUTO 24012KT 210V280 9999 OVC100 15/07 Q1022 BLU 24010KT CAVOK

2020/05/23 07:37
EHGR 230737Z AUTO 24008KT 210V270 9999 FEW024 SCT027 OVC180 15/09 Q1022 BLU 10004KT CAVOK

2020/05/23 07:38
EHGR 230738Z AUTO 24008KT 200V270 9999 SCT023 BKN029 OVC180 14/09 Q1022 WHT 10004KT CAVOK

2020/05/23 07:49
EHGR 230749Z AUTO 24009KT 210V270 9999 FEW023 SCT027 OVC200 15/08 Q1022 BLU 10004KT CAVOK

2020/05/23 07:55
EHHW 230755Z AUTO 26012KT 210V300 9999 NSC 12/08 Q1017

2020/05/23 07:55
EHSC 230755Z AUTO 25022KT 9999 ///////// 13/10 Q1020 W13/H14

2020/05/23 07:55
EHSA 230755Z AUTO 22024KT 9999 ///////// 13/10 Q1021 W10/H13

2020/05/23 07:55
EHPG 230755Z AUTO 24022KT 9999 NSC 12/09 Q1019

2020/05/23 07:55
EHMG 230755Z AUTO 23025KT 9999 NSC 12/09 Q1018

2020/05/23 07:55
EHMA 230755Z AUTO 26019KT 9999 DZ FEW027 13/07 Q1018

2020/05/23 07:55
EHKV 230755Z AUTO 15030KT 9999 NCD 12/08 Q1018

2020/05/23 07:55
EHJR 230755Z AUTO 24027KT //// // ///////// 12/08 Q1018 RE// W11/H20

2020/05/23 07:55
EHQE 230755Z AUTO 20027KT 9999 NSC 13/08 Q1018

2020/05/23 07:55
EHWO 230755Z AUTO 24014KT 220V300 9999 FEW021 SCT025 BKN140 15/09 Q1022 BLU

2020/05/23 07:55
EHVL 230755Z AUTO 24023KT 9999 NCD 14/09 Q1018 BLU

2020/05/23 07:55
EHVK 230755Z AUTO 24012KT 200V280 9999 SCT027 BKN041 OVC120 15/08 Q1021 BLU

2020/05/23 07:55
EHJA 230755Z AUTO 22024KT 9999 NCD 12/08 Q1015

2020/05/23 07:55
EHFZ 230755Z AUTO 23024KT 9999 NCD 12/08 Q1015

2020/05/23 07:55
EHFD 230755Z AUTO 00000KT //// // NCD 11/08 Q1013

2020/05/23 07:55
EHDV 230755Z AUTO 23023KT //// // ///////// 11/08 Q1014 RE//

2020/05/23 07:55
EHAK 230755Z AUTO 23031KT 9999 NCD 11/08 Q1011

2020/05/23 07:55
EHAM 230755Z 25017KT 9999 FEW017 15/09 Q1020 NOSIG

2020/05/23 07:55
EHLW 230755Z AUTO 25019KT 210V280 9999 SCT028 BKN032 BKN037 14/08 Q1018 BLU

2020/05/23 07:55
EHLE 230755Z AUTO 25016KT 9999 SCT026 BKN030 BKN036 16/09 Q1020 NOSIG

2020/05/23 07:55
EHKD 230755Z AUTO 24018KT 210V270 9999 OVC160 14/08 Q1019 BLU 24013KT 9999 FEW020 BECMG 24015G27KT

2020/05/23 07:55
EHGR 230755Z AUTO 24010KT 210V280 9999 FEW025 SCT029 OVC200 15/09 Q1022 BLU 10004KT CAVOK

2020/05/23 07:55
EHGG 230755Z AUTO 26014KT 220V300 9999 SCT036 16/07 Q1019 BECMG 26016G26KT

2020/05/23 07:55
EHDL 230755Z AUTO 24013KT 180V300 9999 SCT025 BKN029 BKN032 15/08 Q1021 BLU

2020/05/23 07:55
EHBK 230755Z AUTO 22013KT 190V250 9999 SCT047 13/08 Q1022 BECMG 27015G25KT

2020/05/23 07:55
EHEH 230755Z AUTO 25011KT 220V290 9999 OVC120 15/07 Q1022 BLU 24012KT 9999 SCT030 BKN110

2020/05/23 07:55
EHRD 230755Z AUTO 25014KT 210V280 9999 FEW022 SCT027 15/09 Q1021 NOSIG

2020/05/23 07:55
EHFS 230755Z AUTO 25025KT 9000 BKN018/// 14/10 Q1021

2020/05/23 07:56
EHWO 230756Z AUTO 24014KT 220V300 9999 SCT021 SCT026 BKN035 14/09 Q1022 WHT

2020/05/23 08:07
EHWO 230807Z AUTO 25015KT 210V270 9999 FEW023 SCT026 BKN030 14/08 Q1022 BLU

2020/05/23 08:25
EHHW 230825Z AUTO 25014KT 200V280 9999 NSC 12/08 Q1017

2020/05/23 08:25
EHSC 230825Z AUTO 25021KT 9999 ///////// 13/09 Q1020 W13/H13

2020/05/23 08:25
EHSA 230825Z AUTO 22025KT 9999 ///////// 13/09 Q1021 W10/H15

2020/05/23 08:25
EHPG 230825Z AUTO 24027KT 9999 NSC 12/09 Q1019 RERA

2020/05/23 08:25
EHMG 230825Z AUTO 24025KT 9999 NCD 12/09 Q1018

2020/05/23 08:25
EHMA 230825Z AUTO 25018KT 9999 FEW027 14/08 Q1018

2020/05/23 08:25
EHKV 230825Z AUTO 15028KT 9999 NCD 12/08 Q1019

2020/05/23 08:25
EHJR 230825Z AUTO 23024KT //// // ///////// 12/08 Q1018 RE// W11/H19

2020/05/23 08:25
EHQE 230825Z AUTO 20027KT 9999 NSC 13/08 Q1018

2020/05/23 08:25
EHWO 230825Z AUTO 25015KT 220V290 9999 FEW025 SCT030 OVC140 15/08 Q1022 BLU

2020/05/23 08:25
EHVL 230825Z AUTO 24025KT 9999 NCD 14/09 Q1018 BLU

2020/05/23 08:25
EHVK 230825Z AUTO 25012KT 220V290 9999 FEW028 OVC120 15/08 Q1021 BLU

2020/05/23 08:25
EHJA 230825Z AUTO 22024KT 9999 NCD 12/08 Q1016

2020/05/23 08:25
EHFZ 230825Z AUTO 23025KT 9999 NCD 12/08 Q1015

2020/05/23 08:25
EHFD 230825Z AUTO 00000KT //// // NCD 11/08 Q1013 RE//

2020/05/23 08:25
EHDV 230825Z AUTO 23023KT //// // ///////// 11/08 Q1014 RE//

2020/05/23 08:25
EHAK 230825Z AUTO 23031KT 9999 NCD 11/08 Q1011

2020/05/23 08:25
EHAM 230825Z 25018KT 9999 FEW023 15/08 Q1020 NOSIG

2020/05/23 08:25
EHLW 230825Z AUTO 25018KT 200V270 9999 FEW027 SCT031 BKN160 15/08 Q1019 BLU

2020/05/23 08:25
EHLE 230825Z AUTO 26015KT 230V290 9999 FEW029 SCT032 15/08 Q1020 NOSIG

2020/05/23 08:25
EHKD 230825Z AUTO 24019KT 210V280 9999 NCD 15/09 Q1019 BLU 24013KT 9999 FEW020 BECMG 24015G27KT

2020/05/23 08:25
EHGR 230825Z AUTO 25010KT 210V300 9999 SCT025 BKN031 BKN041 15/09 Q1022 BLU 10004KT CAVOK

2020/05/23 08:25
EHGG 230825Z AUTO 26015KT 230V300 9999 SCT034 BKN039 16/07 Q1019 BECMG 26016G26KT

2020/05/23 08:25
EHDL 230825Z AUTO 25010KT 190V300 9999 FEW029 OVC130 16/08 Q1021 BLU

2020/05/23 08:25
EHBK 230825Z AUTO 22014KT 9999 NSC 13/08 Q1023 BECMG 27015G25KT

2020/05/23 08:25
EHEH 230825Z AUTO 25010KT 210V300 9999 FEW031 OVC120 15/08 Q1022 BLU 25012KT 9999 SCT030 BKN110

2020/05/23 08:25
EHRD 230825Z AUTO 25014KT 220V290 9999 FEW024 SCT027 14/08 Q1021 NOSIG

2020/05/23 08:25
EHFS 230825Z AUTO 25026KT 9999 FEW025/// 14/09 Q1022

2020/05/23 08:55
EHHW 230855Z AUTO 25017KT 9999 NSC 13/09 Q1017

2020/05/23 08:55
EHSC 230855Z AUTO 25021KT 9999 ///////// 13/09 Q1020 W13/H14

2020/05/23 08:55
EHSA 230855Z AUTO 22023KT 9999 ///////// 13/09 Q1021 W10/H15

2020/05/23 08:55
EHPG 230855Z AUTO 24023KT 9999 NCD 12/09 Q1020

2020/05/23 08:55
EHMG 230855Z AUTO 23027KT 9999 NCD 12/09 Q1018

2020/05/23 08:55
EHMA 230855Z AUTO 25021KT 9999 -DZ FEW027 14/08 Q1018 REDZ

2020/05/23 08:55
EHKV 230855Z AUTO 15027KT 9999 NCD 12/08 Q1019

2020/05/23 08:55
EHJR 230855Z AUTO 23022KT //// // ///////// 12/08 Q1018 RE// W11/H20

2020/05/23 08:55
EHQE 230855Z AUTO 20025KT 9999 NSC 12/08 Q1019

2020/05/23 08:55
EHWO 230855Z AUTO 26014KT 230V290 9999 SCT028 BKN033 BKN037 15/08 Q1022 BLU

2020/05/23 08:55
EHVL 230855Z AUTO 24025KT 9999 NCD 14/08 Q1018 BLU

2020/05/23 08:55
EHVK 230855Z AUTO 24014KT 210V280 9999 SCT030 BKN034 OVC130 15/08 Q1022 BLU

2020/05/23 08:55
EHJA 230855Z AUTO 22023KT 190V260 9999 NCD 12/08 Q1016

2020/05/23 08:55
EHFZ 230855Z AUTO 22027KT 9999 NCD 12/08 Q1016

2020/05/23 08:55
EHFD 230855Z AUTO 00000KT //// // NCD 11/08 Q1013 RE//

2020/05/23 08:55
EHDV 230855Z AUTO 23023KT //// // ///////// 11/08 Q1014 RE//

2020/05/23 08:55
EHAK 230855Z AUTO 23031KT 9999 NCD 11/08 Q1012

2020/05/23 08:55
EHAM 230855Z 25019KT 210V280 9999 FEW025 16/08 Q1020 NOSIG

2020/05/23 08:55
EHLW 230855Z AUTO 26021KT 220V280 9999 SCT030 BKN034 BKN040 15/07 Q1019 BLU

2020/05/23 08:55
EHLE 230855Z AUTO 26015KT 9999 SCT030 BKN036 BKN043 15/07 Q1020 NOSIG

2020/05/23 08:55
EHKD 230855Z AUTO 24020KT 210V270 9999 NCD 15/09 Q1019 BLU 24013KT 9999 FEW020 BECMG 24015G27KT

2020/05/23 08:55
EHGR 230855Z AUTO 26012KT 230V290 9999 FEW029 SCT042 BKN048 15/08 Q1022 BLU 10004KT CAVOK

2020/05/23 08:55
EHGG 230855Z AUTO 25012KT 220V300 9999 FEW034 SCT043 15/07 Q1019 BECMG 26016G26KT

2020/05/23 08:55
EHDL 230855Z AUTO 24016KT 200V350 9999 SCT032 BKN036 BKN040 16/07 Q1020 BLU

2020/05/23 08:55
EHBK 230855Z AUTO 23014KT 200V270 9999 NSC 13/08 Q1023 BECMG 27015G25KT

2020/05/23 08:55
EHEH 230855Z AUTO 25011KT 210V330 9999 BKN029 BKN036 OVC130 16/08 Q1022 BLU 25012G22KT 9999 SCT030 BKN035 BKN130

2020/05/23 08:55
EHRD 230855Z AUTO 24016KT 200V280 9999 SCT027 BKN032 16/08 Q1021 NOSIG

2020/05/23 08:55
EHFS 230855Z AUTO 25026KT 9999 NCD 14/09 Q1022

2020/05/23 09:02
EHKD 230902Z AUTO 24018KT 200V270 9999 FEW020 15/09 Q1019 BLU FCST CANCEL

2020/05/23 09:03
EHKD 230903Z AUTO 24017KT 200V270 9999 FEW020 15/09 Q1019 BLU

2020/05/23 09:25
EHHW 230925Z AUTO 25020KT 9999 NSC 13/08 Q1018

2020/05/23 09:25
EHSC 230925Z AUTO 24024KT 9999 ///////// 13/09 Q1020 W13/H13

2020/05/23 09:25
EHSA 230925Z AUTO 22025KT 9999 ///////// 13/09 Q1021 W10/H15

2020/05/23 09:25
EHPG 230925Z AUTO 23027KT 9999 -RA NCD 12/09 Q1019

2020/05/23 09:25
EHMG 230925Z AUTO 23028KT 9999 NCD 12/09 Q1018

2020/05/23 09:25
EHMA 230925Z AUTO 25023KT 9999 FEW027 SCT030 14/07 Q1018

2020/05/23 09:25
EHKV 230925Z AUTO 15026KT 9999 NCD 12/08 Q1020

2020/05/23 09:25
EHJR 230925Z AUTO 23022KT //// // ///////// 12/09 Q1018 RE// W12/H17

2020/05/23 09:25
EHQE 230925Z AUTO 20026KT 9999 NCD 13/08 Q1019

2020/05/23 09:25
EHWO 230925Z AUTO 25017KT 220V300 9999 BKN031 BKN040 17/07 Q1022 BLU

2020/05/23 09:25
EHVL 230925Z AUTO 24026KT 9999 NCD 14/09 Q1018 BLU

2020/05/23 09:25
EHVK 230925Z AUTO 24014KT 200V290 9999 BKN033 BKN038 OVC130 16/07 Q1021 BLU

2020/05/23 09:25
EHJA 230925Z AUTO 22025KT 200V260 9999 NCD 12/08 Q1016

2020/05/23 09:25
EHFZ 230925Z AUTO 22027KT 9999 NCD 12/08 Q1016

2020/05/23 09:25
EHFD 230925Z AUTO 00000KT //// // NCD 11/08 Q1014 RE//

2020/05/23 09:25
EHDV 230925Z AUTO 23023KT //// // ///////// 11/08 Q1014 RE//

2020/05/23 09:25
EHAK 230925Z AUTO 23031KT 9999 NCD 11/08 Q1012

2020/05/23 09:25
EHAM 230925Z 25018KT 210V290 9999 FEW027 16/08 Q1021 NOSIG

2020/05/23 09:25
EHLW 230925Z AUTO 24021KT 200V270 9999 FEW031 15/07 Q1019 BLU

2020/05/23 09:25
EHLE 230925Z AUTO 26015KT 220V300 9999 SCT033 BKN037 BKN045 16/08 Q1020 NOSIG

2020/05/23 09:25
EHKD 230925Z AUTO 24020KT 210V270 9999 NCD 15/09 Q1019 BLU

2020/05/23 09:25
EHGR 230925Z AUTO 26012G23KT 9999 FEW032 SCT038 BKN140 16/07 Q1022 BLU 10004KT CAVOK

2020/05/23 09:25
EHGG 230925Z AUTO 26016KT 230V300 9999 SCT036 BKN043 16/07 Q1019 BECMG 26016G26KT

2020/05/23 09:25
EHDL 230925Z AUTO 24014G24KT 180V330 9999 BKN037 BKN045 BKN053 17/06 Q1021 BLU

2020/05/23 09:25
EHBK 230925Z AUTO 23014KT 200V270 9999 FEW025 13/08 Q1023 BECMG 27015G25KT

2020/05/23 09:25
EHEH 230925Z AUTO 25014KT 210V290 9999 SCT032 BKN039 BKN047 16/07 Q1022 BLU 25012G22KT 9999 SCT030 BKN035 BKN130

2020/05/23 09:25
EHRD 230925Z AUTO 25017KT 210V300 9999 FEW032 17/07 Q1021 NOSIG

2020/05/23 09:25
EHFS 230925Z AUTO 25026KT 9999 NSC 15/09 Q1022

2020/05/23 09:39
EHKD 230939Z AUTO 23021KT 9999 SCT016 15/09 Q1019 WHT

2020/05/23 09:43
EHKD 230943Z AUTO 24020KT 9999 FEW016 15/09 Q1019 BLU

2020/05/23 09:55
EHHW 230955Z AUTO 26019KT 230V290 9999 NCD 13/08 Q1018

2020/05/23 09:55
EHSC 230955Z AUTO 24024KT 9999 ///////// 13/09 Q1020 W13/H13

2020/05/23 09:55
EHSA 230955Z AUTO 22025KT 9999 ///////// 13/09 Q1021 W10/H14

2020/05/23 09:55
EHPG 230955Z AUTO 23027KT 9999 NCD 12/09 Q1020

2020/05/23 09:55
EHMG 230955Z AUTO 23029KT 9999 NCD 12/09 Q1018

2020/05/23 09:55
EHMA 230955Z AUTO 25023KT 9999 FEW026 14/07 Q1018

2020/05/23 09:55
EHKV 230955Z AUTO 15026KT 9999 NCD 12/08 Q1020

2020/05/23 09:55
EHJR 230955Z AUTO 22020KT //// // ///////// 12/09 Q1018 RE// W12/H17

2020/05/23 09:55
EHQE 230955Z AUTO 20025KT 9999 NCD 13/08 Q1019

2020/05/23 09:55
EHWO 230955Z AUTO 26018KT 220V290 9999 SCT036 SCT046 17/06 Q1022 BLU

2020/05/23 09:55
EHVL 230955Z AUTO 24026KT 9999 NCD 15/09 Q1019 BLU

2020/05/23 09:55
EHVK 230955Z AUTO 25013KT 220V290 9999 FEW036 OVC140 17/07 Q1021 BLU

2020/05/23 09:55
EHJA 230955Z AUTO 22027KT 9999 NCD 12/08 Q1016

2020/05/23 09:55
EHFZ 230955Z AUTO 22026KT 9999 NCD 12/08 Q1016

2020/05/23 09:55
EHFD 230955Z AUTO 00000KT //// // NCD 11/08 Q1014 RE//

2020/05/23 09:55
EHDV 230955Z AUTO 22023KT //// // ///////// 11/08 Q1014 RE//

2020/05/23 09:55
EHAK 230955Z AUTO 23033KT 9999 NCD 11/08 Q1012

2020/05/23 09:55
EHAM 230955Z 25019KT 220V290 9999 FEW026 16/08 Q1021 NOSIG

2020/05/23 09:55
EHLW 230955Z AUTO 25021KT 220V300 9999 FEW032 16/07 Q1019 BLU

2020/05/23 09:55
EHLE 230955Z AUTO 26017KT 230V300 9999 FEW039 17/07 Q1020 NOSIG

2020/05/23 09:55
EHKD 230955Z AUTO 24020KT 210V270 9999 NCD 16/09 Q1020 BLU

2020/05/23 09:55
EHGR 230955Z AUTO 25012KT 200V280 9999 BKN036 BKN043 BKN057 17/07 Q1022 BLU 10004KT CAVOK

2020/05/23 09:55
EHGG 230955Z AUTO 25017KT 200V280 9999 SCT039 SCT046 16/04 Q1019 TEMPO 26017G27KT

2020/05/23 09:55
EHDL 230955Z AUTO 25015KT 200V330 9999 FEW039 SCT058 OVC140 18/06 Q1021 BLU

2020/05/23 09:55
EHBK 230955Z AUTO 24014KT 210V290 9999 FEW023 BKN026 BKN030 14/08 Q1023 BECMG 27015G25KT

2020/05/23 09:55
EHEH 230955Z AUTO 26012KT 210V300 9999 FEW037 OVC250 17/07 Q1022 BLU 25012G22KT 9999 SCT030 BKN035 BKN130

2020/05/23 09:55
EHRD 230955Z AUTO 25018KT 220V290 9999 FEW033 16/07 Q1021 NOSIG

2020/05/23 09:55
EHFS 230955Z AUTO 25024KT 9999 NCD 15/09 Q1022

2020/05/23 10:25
EHHW 231025Z AUTO 25020KT 9999 NCD 13/08 Q1018

2020/05/23 10:25
EHSC 231025Z AUTO 25024KT 9000 ///////// 13/10 Q1020 W13/H14

2020/05/23 10:25
EHSA 231025Z AUTO 21025KT 9999 ///////// 13/10 Q1021 W10/H16

2020/05/23 10:25
EHPG 231025Z AUTO 23027KT 9999 -RA NCD 12/09 Q1020

2020/05/23 10:25
EHMG 231025Z AUTO 23029KT 9999 NCD 12/09 Q1018

2020/05/23 10:25
EHMA 231025Z AUTO 25023KT 9999 FEW025 14/08 Q1018

2020/05/23 10:25
EHKV 231025Z AUTO 14027KT 9999 NCD 12/09 Q1020

2020/05/23 10:25
EHJR 231025Z AUTO 22020KT //// // ///////// 12/09 Q1019 RE// W12/H16

2020/05/23 10:25
EHQE 231025Z AUTO 19025KT 9999 NCD 12/09 Q1019

2020/05/23 10:25
EHWO 231025Z AUTO 25020KT 210V300 9999 NCD 18/04 Q1022 BLU

2020/05/23 10:25
EHVL 231025Z AUTO 24027KT 9999 NCD 15/09 Q1019 BLU

2020/05/23 10:25
EHVK 231025Z AUTO 25013KT 220V300 9999 BKN039 BKN046 BKN052 17/06 Q1022 BLU

2020/05/23 10:25
EHJA 231025Z AUTO 22026KT 9999 NCD 12/08 Q1017

2020/05/23 10:25
EHFZ 231025Z AUTO 22028KT 9999 NCD 12/08 Q1016

2020/05/23 10:25
EHFD 231025Z AUTO 00000KT //// // NCD 11/08 Q1014 RE//

2020/05/23 10:25
EHDV 231025Z AUTO 22023KT //// // ///////// 11/08 Q1014 RE//

2020/05/23 10:25
EHAK 231025Z AUTO 23033KT 9999 NCD 11/08 Q1012

2020/05/23 10:25
EHAM 231025Z 25018KT 220V280 9999 FEW030 17/07 Q1021 NOSIG

2020/05/23 10:25
EHLW 231025Z AUTO 25022KT 210V270 9999 FEW030 16/08 Q1019 BLU

2020/05/23 10:25
EHLE 231025Z AUTO 26019KT 230V290 9999 FEW041 18/06 Q1020 NOSIG

2020/05/23 10:25
EHKD 231025Z AUTO 23021KT 200V260 9999 NCD 15/09 Q1020 BLU

2020/05/23 10:25
EHGR 231025Z AUTO 25012KT 210V290 9999 FEW041 SCT047 BKN059 17/06 Q1022 BLU 10004KT CAVOK

2020/05/23 10:25
EHGG 231025Z AUTO 25015KT 200V290 9999 SCT041 BKN047 18/06 Q1019 NOSIG

2020/05/23 10:25
EHDL 231025Z AUTO 26014G24KT 190V320 9999 SCT041 SCT046 BKN053 17/05 Q1021 BLU

2020/05/23 10:25
EHBK 231025Z AUTO 24012KT 200V290 9999 FEW028 SCT032 15/08 Q1023 BECMG 27015G25KT

2020/05/23 10:25
EHEH 231025Z AUTO 26014KT 190V310 9999 FEW043 SCT051 BKN150 18/07 Q1022 BLU 25012G22KT 9999 SCT030 BKN035 BKN130

2020/05/23 10:25
EHRD 231025Z AUTO 25016KT 210V300 9999 FEW035 17/07 Q1021 NOSIG

2020/05/23 10:25
EHFS 231025Z AUTO 25025KT 9999 NCD 15/09 Q1022

2020/05/23 10:55
EHHW 231055Z AUTO 25018KT 220V280 9999 NCD 12/08 Q1018

2020/05/23 10:55
EHSC 231055Z AUTO 24024KT 9000 ///////// 13/10 Q1021 W13/H14

2020/05/23 10:55
EHSA 231055Z AUTO 21025KT 9000 ///////// 13/11 Q1021 W10/H16

2020/05/23 10:55
EHPG 231055Z AUTO 23025KT 9999 NCD 13/09 Q1020

2020/05/23 10:55
EHMG 231055Z AUTO 23029KT 9999 NCD 12/09 Q1018

2020/05/23 10:55
EHMA 231055Z AUTO 24025KT 9999 DZ FEW025 14/08 Q1018

2020/05/23 10:55
EHKV 231055Z AUTO 14026KT 9999 NCD 12/09 Q1019

2020/05/23 10:55
EHJR 231055Z AUTO 22021KT //// // ///////// 12/09 Q1019 RE// W12/H16

2020/05/23 10:55
EHQE 231055Z AUTO 19026KT 9999 NCD 12/09 Q1019

2020/05/23 10:55
EHWO 231055Z AUTO 26020KT 220V290 9999 FEW051 18/05 Q1022 BLU

2020/05/23 10:55
EHVL 231055Z AUTO 24027KT 9000 HZ NCD 15/09 Q1019 BLU

2020/05/23 10:55
EHVK 231055Z AUTO 26014KT 220V330 9999 FEW046 BKN062 17/05 Q1021 BLU

2020/05/23 10:55
EHJA 231055Z AUTO 21026KT 9999 NCD 12/08 Q1017

2020/05/23 10:55
EHFZ 231055Z AUTO 22027KT 9999 NCD 12/08 Q1016

2020/05/23 10:55
EHFD 231055Z AUTO 00000KT //// // NCD 11/08 Q1014 RE//

2020/05/23 10:55
EHDV 231055Z AUTO 22023KT //// // ///////// 12/08 Q1014 RE//

2020/05/23 10:55
EHAK 231055Z AUTO 23032KT 200V260 9999 NCD 11/08 Q1012

2020/05/23 10:55
EHAM 231055Z 25020KT 9999 FEW025 16/07 Q1021 NOSIG

2020/05/23 10:55
EHLW 231055Z AUTO 25023KT 220V280 9999 FEW029 16/08 Q1019 BLU

2020/05/23 10:55
EHLE 231055Z AUTO 26016KT 230V300 9999 BKN047 18/06 Q1020 NOSIG

2020/05/23 10:55
EHKD 231055Z AUTO 24022KT 210V270 9999 FEW018 15/09 Q1020 BLU

2020/05/23 10:55
EHGR 231055Z AUTO 27013G23KT 240V300 9999 FEW046 17/05 Q1022 BLU 10004KT CAVOK

2020/05/23 10:55
EHGG 231055Z AUTO 25017KT 220V300 9999 FEW046 17/05 Q1019 TEMPO 26017G27KT

2020/05/23 10:55
EHDL 231055Z AUTO 26013G23KT 190V300 9999 SCT043 BKN049 BKN056 17/05 Q1021 BLU

2020/05/23 10:55
EHBK 231055Z AUTO 25011KT 200V290 9999 FEW028 SCT038 BKN042 16/08 Q1023 BECMG 27015G25KT

2020/05/23 10:55
EHEH 231055Z AUTO 28013KT 200V320 9999 SCT046 BKN051 BKN060 17/05 Q1022 BLU 25012G22KT 9999 SCT030 BKN035 BKN130

2020/05/23 10:55
EHRD 231055Z AUTO 26017KT 220V300 9999 FEW034 SCT038 16/07 Q1021 NOSIG

2020/05/23 10:55
EHFS 231055Z AUTO 25024KT 230V290 9999 NCD 15/09 Q1022

2020/05/23 11:25
EHHW 231125Z AUTO 25021KT 9999 NCD 12/08 Q1018

2020/05/23 11:25
EHSC 231125Z AUTO 24025KT 9000 ///////// 13/10 Q1021 W13/H14

2020/05/23 11:25
EHSA 231125Z AUTO 21024KT 9999 ///////// 13/10 Q1022 W10/H17

2020/05/23 11:25
EHPG 231125Z AUTO 23025KT 9999 NCD 13/09 Q1020

2020/05/23 11:25
EHMG 231125Z AUTO 23028KT 9999 NCD 12/09 Q1018

2020/05/23 11:25
EHMA 231125Z AUTO 25025KT 9999 -RA FEW025 14/08 Q1019

2020/05/23 11:25
EHKV 231125Z AUTO 14025KT 9999 NCD 12/09 Q1019

2020/05/23 11:25
EHJR 231125Z AUTO 22022KT //// // ///////// 12/09 Q1018 RE// W12/H16

2020/05/23 11:25
EHQE 231125Z AUTO 19027KT 9999 NCD 12/09 Q1019

2020/05/23 11:25
EHWO 231125Z AUTO 27019KT 220V300 9999 FEW048 18/06 Q1022 BLU

2020/05/23 11:25
EHVL 231125Z AUTO 24027KT 9000 HZ NCD 15/09 Q1019 BLU

2020/05/23 11:25
EHVK 231125Z AUTO 24016KT 210V300 9999 BKN046 BKN054 OVC061 18/05 Q1021 BLU

2020/05/23 11:25
EHJA 231125Z AUTO 21031KT 9999 NCD 12/08 Q1016

2020/05/23 11:25
EHFZ 231125Z AUTO 22026KT 9999 NCD 12/08 Q1016

2020/05/23 11:25
EHFD 231125Z AUTO 00000KT 9999 // NCD 11/08 Q1014 RE//

2020/05/23 11:25
EHDV 231125Z AUTO 22023KT //// // ///////// 12/08 Q1014 RE//

2020/05/23 11:25
EHAK 231125Z AUTO 22030KT 9999 NCD 12/08 Q1012

2020/05/23 11:25
EHAM 231125Z 25021KT 210V270 9999 SCT028 17/07 Q1021 NOSIG

2020/05/23 11:25
EHLW 231125Z AUTO 25023KT 210V280 9999 FEW028 SCT044 16/08 Q1019 BLU

2020/05/23 11:25
EHLE 231125Z AUTO 26016KT 230V300 9999 BKN045 17/06 Q1020 NOSIG

2020/05/23 11:25
EHKD 231125Z AUTO 24021KT 210V270 9999 NCD 15/09 Q1020 BLU 24020G32KT 9999 FEW020

2020/05/23 11:25
EHGR 231125Z AUTO 28016KT 230V310 9999 BKN052 17/03 Q1022 BLU 10004KT CAVOK

2020/05/23 11:25
EHGG 231125Z AUTO 25017KT 220V280 9999 FEW049 18/06 Q1019 TEMPO 26017G27KT

2020/05/23 11:25
EHDL 231125Z AUTO 24016KT 170V300 9999 SCT050 BKN057 18/04 Q1021 BLU

2020/05/23 11:25
EHBK 231125Z AUTO 24010KT 190V290 9999 FEW037 SCT041 16/07 Q1023 BECMG 27015G25KT

2020/05/23 11:25
EHEH 231125Z AUTO 25014KT 240V300 9999 FEW049 19/05 Q1022 BLU 25014G25KT CAVOK

2020/05/23 11:25
EHRD 231125Z AUTO 25019KT 210V290 9999 SCT033 SCT038 17/07 Q1022 NOSIG

2020/05/23 11:25
EHFS 231125Z AUTO 25026KT 220V280 9999 NCD 16/09 Q1022

2020/05/23 11:55
EHHW 231155Z AUTO 25022KT 9999 NCD 12/08 Q1018

2020/05/23 11:55
EHSC 231155Z AUTO 24026KT 9000 ///////// 13/10 Q1021 W13/H15

2020/05/23 11:55
EHSA 231155Z AUTO 21023KT 9000 ///////// 13/11 Q1022 W10/H17

2020/05/23 11:55
EHPG 231155Z AUTO 22026KT 9999 NSC 13/09 Q1020

2020/05/23 11:55
EHMG 231155Z AUTO 23028KT 9999 NCD 12/09 Q1018

2020/05/23 11:55
EHMA 231155Z AUTO 25025KT 9999 +DZ FEW025 14/08 Q1018

2020/05/23 11:55
EHKV 231155Z AUTO 13026KT 9999 NCD 12/09 Q1019

2020/05/23 11:55
EHJR 231155Z AUTO 22022KT //// // ///////// 12/09 Q1018 RE// W12/H15

2020/05/23 11:55
EHQE 231155Z AUTO 19028KT 9999 NCD 13/09 Q1019

2020/05/23 11:55
EHWO 231155Z AUTO 27016KT 230V330 9999 NCD 19/05 Q1022 BLU

2020/05/23 11:55
EHVL 231155Z AUTO 24028KT 9000 HZ NCD 15/09 Q1019 BLU

2020/05/23 11:55
EHVK 231155Z AUTO 26012KT 230V330 9999 FEW048 19/05 Q1022 BLU

2020/05/23 11:55
EHJA 231155Z AUTO 21029KT 9999 NCD 12/08 Q1016

2020/05/23 11:55
EHFZ 231155Z AUTO 22027KT 9999 NCD 12/08 Q1016

2020/05/23 11:55
EHFD 231155Z AUTO 00000KT 9999 // NCD 11/08 Q1014 RE//

2020/05/23 11:55
EHDV 231155Z AUTO 22022KT //// // ///////// 12/08 Q1014 RE//

2020/05/23 11:55
EHAK 231155Z AUTO 22032KT 190V250 9999 NCD 12/08 Q1012

2020/05/23 11:55
EHAM 231155Z 25023KT 230V290 9999 SCT028 16/07 Q1021 NOSIG

2020/05/23 11:55
EHLW 231155Z AUTO 25021G31KT 220V280 9999 SCT028 BKN032 BKN044 16/07 Q1019 BLU

2020/05/23 11:55
EHLE 231155Z AUTO 26019KT 240V300 9999 FEW043 BKN047 17/06 Q1020 NOSIG

2020/05/23 11:55
EHKD 231155Z AUTO 24022KT 200V270 9999 NCD 15/09 Q1020 BLU 24020G32KT 9999 FEW020

2020/05/23 11:55
EHGR 231155Z AUTO 26015KT 220V300 9999 FEW057 18/03 Q1022 BLU 10004KT CAVOK

2020/05/23 11:55
EHGG 231155Z AUTO 26016KT 220V300 9999 FEW046 17/06 Q1019 TEMPO 26017G27KT

2020/05/23 11:55
EHDL 231155Z AUTO 25016KT 210V020 9999 BKN049 BKN053 BKN060 18/04 Q1021 BLU

2020/05/23 11:55
EHBK 231155Z AUTO 25011KT 210V300 9999 NSC 17/08 Q1023 BECMG 27015G25KT

2020/05/23 11:55
EHEH 231155Z AUTO 23016KT 210V300 9999 FEW050 19/05 Q1022 BLU 25014G25KT CAVOK

2020/05/23 11:55
EHRD 231155Z AUTO 25018G28KT 220V030 9999 SCT037 18/07 Q1022 NOSIG

2020/05/23 11:55
EHFS 231155Z AUTO 26024KT 9999 NCD 16/09 Q1022

2020/05/23 12:25
EHHW 231225Z AUTO 25023KT 9999 NCD 13/08 Q1018

2020/05/23 12:25
EHSC 231225Z AUTO 24026KT 9000 ///////// 13/10 Q1021 W13/H16

2020/05/23 12:25
EHSA 231225Z AUTO 21025KT 9000 ///////// 13/11 Q1022 W10/H19

2020/05/23 12:25
EHPG 231225Z AUTO 21027KT 180V240 9000 NSC 13/10 Q1020

2020/05/23 12:25
EHMG 231225Z AUTO 23029KT 9999 NCD 12/09 Q1018

2020/05/23 12:25
EHMA 231225Z AUTO 24024KT 9999 FEW024 SCT028 14/09 Q1018 REDZ

2020/05/23 12:25
EHKV 231225Z AUTO 13026KT 9999 NSC 13/09 Q1019

2020/05/23 12:25
EHJR 231225Z AUTO 22023KT //// // ///////// 13/09 Q1018 RE// W12/H16

2020/05/23 12:25
EHQE 231225Z AUTO 18028KT 9999 NCD 13/09 Q1019

2020/05/23 12:25
EHWO 231225Z AUTO 28015KT 230V330 9999 FEW047 SCT071 19/07 Q1022 BLU

2020/05/23 12:25
EHVL 231225Z AUTO 24028KT 8000 HZ NCD 15/09 Q1018 BLU

2020/05/23 12:25
EHVK 231225Z AUTO 26014KT 220V310 9999 SCT059 BKN065 20/03 Q1022 BLU

2020/05/23 12:25
EHJA 231225Z AUTO 21028KT 9999 NCD 13/08 Q1016

2020/05/23 12:25
EHFZ 231225Z AUTO 22027KT 9999 NCD 12/08 Q1016

2020/05/23 12:25
EHFD 231225Z AUTO 00000KT 9999 NCD 12/08 Q1014

2020/05/23 12:25
EHDV 231225Z AUTO 22022KT //// // ///////// 12/08 Q1014 RE//

2020/05/23 12:25
EHAK 231225Z AUTO 22031KT 9999 NCD 12/08 Q1012

2020/05/23 12:25
EHAM 231225Z 25024KT 220V280 9999 FEW028 17/07 Q1021 NOSIG

2020/05/23 12:25
EHLW 231225Z AUTO 25021KT 220V280 9999 BKN031 BKN039 16/07 Q1019 BLU

2020/05/23 12:25
EHLE 231225Z AUTO 27019KT 240V300 9999 SCT044 17/05 Q1021 NOSIG

2020/05/23 12:25
EHKD 231225Z AUTO 23024KT 190V270 9999 NCD 15/09 Q1020 BLU 24020G32KT 9999 FEW020

2020/05/23 12:25
EHGR 231225Z AUTO 27018KT 230V300 9999 NCD 19/01 Q1022 BLU 10004KT CAVOK

2020/05/23 12:25
EHGG 231225Z AUTO 25016KT 210V290 9999 FEW046 19/06 Q1019 TEMPO 26017G27KT

2020/05/23 12:25
EHDL 231225Z AUTO 24017G27KT 200V320 9999 SCT056 SCT064 19/02 Q1021 BLU

2020/05/23 12:25
EHBK 231225Z AUTO 26013G24KT 170V310 9999 NSC 18/06 Q1023 BECMG 27015G25KT

2020/05/23 12:25
EHEH 231225Z AUTO 27013KT 230V340 9999 FEW052 SCT059 BKN064 19/04 Q1022 BLU 25014G25KT CAVOK

2020/05/23 12:25
EHRD 231225Z AUTO 25020G31KT 220V010 9999 SCT035 SCT040 17/06 Q1022 NOSIG

2020/05/23 12:25
EHFS 231225Z AUTO 26024KT 9000 NCD 16/10 Q1022

2020/05/23 12:42
EHGR 231242Z AUTO 28014KT 250V330 9999 FEW064 19/01 Q1022 BLU

2020/05/23 12:55
EHHW 231255Z AUTO 25021KT 9999 NCD 13/09 Q1018

2020/05/23 12:55
EHSC 231255Z AUTO 25027KT 8000 ///////// 13/10 Q1021 W13/H17

2020/05/23 12:55
EHSA 231255Z AUTO 21027KT 9999 ///////// 13/11 Q1022 W10/H19

2020/05/23 12:55
EHPG 231255Z AUTO 21028KT 180V250 9999 NSC 13/10 Q1019

2020/05/23 12:55
EHMG 231255Z AUTO 23031KT 9999 NCD 12/10 Q1018

2020/05/23 12:55
EHMA 231255Z AUTO 25025KT 9999 -RADZ FEW025 SCT029 14/08 Q1018 RERA REDZ

2020/05/23 12:55
EHKV 231255Z AUTO 13027KT 9999 NSC 13/09 Q1019

2020/05/23 12:55
EHJR 231255Z AUTO 21022KT //// // ///////// 13/09 Q1018 RE// W12/H16

2020/05/23 12:55
EHQE 231255Z AUTO 18030KT 9999 NCD 13/09 Q1019

2020/05/23 12:55
EHWO 231255Z AUTO 27016KT 220V310 9999 FEW038 SCT047 17/07 Q1022 BLU

2020/05/23 12:55
EHVL 231255Z AUTO 23028KT 9000 HZ NCD 15/09 Q1018 BLU

2020/05/23 12:55
EHVK 231255Z AUTO 26019G29KT 220V320 9999 NCD 19/01 Q1022 BLU

2020/05/23 12:55
EHJA 231255Z AUTO 22026KT 9999 NSC 13/07 Q1016

2020/05/23 12:55
EHFZ 231255Z AUTO VRB25KT 9999 NCD 12/08 Q1016

2020/05/23 12:55
EHFD 231255Z AUTO 00000KT 9999 NCD 12/08 Q1014

2020/05/23 12:55
EHDV 231255Z AUTO 22021KT //// // ///////// 12/08 Q1014 RE//

2020/05/23 12:55
EHAK 231255Z AUTO 22030KT 9999 NSC 12/08 Q1012

2020/05/23 12:55
EHAM 231255Z 24024KT 210V280 9999 FEW032 17/07 Q1021 NOSIG

2020/05/23 12:55
EHLW 231255Z AUTO 26023KT 220V290 9999 BKN030 BKN037 17/08 Q1019 BLU

2020/05/23 12:55
EHLE 231255Z AUTO 26018KT 220V300 9999 SCT043 BKN047 16/05 Q1021 NOSIG

2020/05/23 12:55
EHKD 231255Z AUTO 23023KT 9999 NCD 16/09 Q1019 BLU 24020G32KT 9999 FEW020

2020/05/23 12:55
EHGR 231255Z AUTO 26014KT 210V300 9999 FEW064 19/02 Q1022 BLU

2020/05/23 12:55
EHGG 231255Z AUTO 26016KT 230V290 9999 FEW047 17/05 Q1019 TEMPO 26017G27KT

2020/05/23 12:55
EHDL 231255Z AUTO 24017G27KT 190V310 9999 FEW055 SCT063 20/03 Q1021 BLU

2020/05/23 12:55
EHBK 231255Z AUTO 26010KT 210V320 9999 NSC 18/05 Q1023 NOSIG

2020/05/23 12:55
EHEH 231255Z AUTO 27014KT 210V300 9999 FEW061 SCT072 18/04 Q1022 BLU 25014G25KT CAVOK

2020/05/23 12:55
EHRD 231255Z AUTO 25019KT 210V010 9999 FEW034 SCT039 18/07 Q1022 NOSIG

2020/05/23 12:55
EHFS 231255Z AUTO 26025KT 9000 NCD 16/10 Q1022

2020/05/23 13:12
EHEH 231312Z AUTO 25013KT 190V290 9999 FEW088 SCT094 19/04 Q1022 BLU 25014G25KT CAVOK TEMPO FEW045CB SCT070

2020/05/23 13:14
EHGR 231314Z AUTO 27015KT 240V310 9999 FEW055CB BKN058 BKN065 BKN073 18/04 Q1022 BLU

2020/05/23 13:25
EHHW 231325Z AUTO 25021KT 9999 NCD 13/09 Q1018

2020/05/23 13:25
EHSC 231325Z AUTO 24025KT 8000 ///////// 13/11 Q1021 W13/H18

2020/05/23 13:25
EHSA 231325Z AUTO 21027KT 9999 ///////// 13/11 Q1022 W10/H18

2020/05/23 13:25
EHPG 231325Z AUTO 21030KT 160V240 9000 NSC 13/11 Q1019

2020/05/23 13:25
EHMG 231325Z AUTO 23029KT 9000 NCD 12/10 Q1018

2020/05/23 13:25
EHMA 231325Z AUTO 25025KT 9999 -RA FEW026 14/08 Q1019

2020/05/23 13:25
EHKV 231325Z AUTO 13025KT 9999 NSC 13/09 Q1019

2020/05/23 13:25
EHJR 231325Z AUTO 22022KT //// // ///////// 13/09 Q1019 RE// W12/H17

2020/05/23 13:25
EHQE 231325Z AUTO 18029KT 9999 NCD 13/09 Q1019

2020/05/23 13:25
EHWO 231325Z AUTO 28018KT 230V320 9999 FEW044 19/07 Q1022 BLU

2020/05/23 13:25
EHVL 231325Z AUTO 23029KT 9999 NCD 15/09 Q1018 BLU

2020/05/23 13:25
EHVK 231325Z AUTO 27014G25KT 200V360 9999 FEW067 19/01 Q1022 BLU

2020/05/23 13:25
EHJA 231325Z AUTO 22025KT 9999 NCD 13/07 Q1017

2020/05/23 13:25
EHFZ 231325Z AUTO 21026KT 9999 NCD 12/08 Q1016

2020/05/23 13:25
EHFD 231325Z AUTO 00000KT 9999 NCD 12/08 Q1014

2020/05/23 13:25
EHDV 231325Z AUTO 22022KT //// // ///////// 12/08 Q1014 RE//

2020/05/23 13:25
EHAK 231325Z AUTO 22030KT 9999 NSC 12/08 Q1012

2020/05/23 13:25
EHAM 231325Z 25023KT 210V280 9999 FEW034 17/07 Q1021 NOSIG

2020/05/23 13:25
EHLW 231325Z AUTO 24023KT 210V280 9999 FEW032 SCT036 16/06 Q1019 BLU

2020/05/23 13:25
EHLE 231325Z AUTO 26018KT 230V290 9999 BKN041 BKN049 17/06 Q1021 NOSIG

2020/05/23 13:25
EHKD 231325Z AUTO 23022G33KT 180V260 9999 NCD 16/09 Q1019 BLU 24020G32KT 9999 FEW020

2020/05/23 13:25
EHGR 231325Z AUTO 26012KT 230V300 9999 FEW051CB SCT052 BKN070 18/05 Q1022 BLU

2020/05/23 13:25
EHGG 231325Z AUTO 25017KT 210V280 9999 SCT045 18/06 Q1019 TEMPO 26017G27KT

2020/05/23 13:25
EHDL 231325Z AUTO 25018KT 190V320 9999 SCT056 SCT066 19/03 Q1021 BLU

2020/05/23 13:25
EHBK 231325Z AUTO 25012KT 210V310 9999 NSC 19/05 Q1023 NOSIG

2020/05/23 13:25
EHEH 231325Z AUTO 25013KT 220V330 9999 FEW057 SCT063 BKN085 19/04 Q1022 BLU 25014G25KT CAVOK TEMPO FEW045CB SCT070

2020/05/23 13:25
EHRD 231325Z AUTO 25019KT 220V290 9999 FEW035 17/07 Q1022 NOSIG

2020/05/23 13:25
EHFS 231325Z AUTO 26026KT 220V280 9999 NCD 16/09 Q1022

2020/05/23 13:49
EHGR 231349Z AUTO 26014KT 220V310 9999 SCT047 BKN051 BKN058 18/08 Q1022 BLU

2020/05/23 13:55
EHHW 231355Z AUTO 25020KT 9999 NCD 13/09 Q1018

2020/05/23 13:55
EHSC 231355Z AUTO 24027KT 8000 ///////// 13/11 Q1021 W13/H18

2020/05/23 13:55
EHSA 231355Z AUTO 21029KT 9999 ///////// 13/11 Q1022 W10/H18

2020/05/23 13:55
EHPG 231355Z AUTO 21031KT 9000 NSC 13/10 Q1019

2020/05/23 13:55
EHMG 231355Z AUTO 23029KT 9999 NCD 13/10 Q1019

2020/05/23 13:55
EHMA 231355Z AUTO 25024KT 9999 FEW030 15/07 Q1019 REDZ

2020/05/23 13:55
EHKV 231355Z AUTO 14028KT 9999 NSC 13/09 Q1019

2020/05/23 13:55
EHJR 231355Z AUTO 22022KT //// // ///////// 13/09 Q1018 RE// W12/H17

2020/05/23 13:55
EHQE 231355Z AUTO 19032KT 9999 NCD 13/09 Q1019

2020/05/23 13:55
EHWO 231355Z AUTO 27017KT 230V320 9999 FEW044 SCT053 BKN077 18/07 Q1023 BLU

2020/05/23 13:55
EHVL 231355Z AUTO 23028KT 9999 NCD 15/09 Q1019 BLU

2020/05/23 13:55
EHVK 231355Z AUTO 27011KT 240V350 9999 FEW068 20/02 Q1022 BLU

2020/05/23 13:55
EHJA 231355Z AUTO 22027KT 9999 NCD 13/07 Q1017

2020/05/23 13:55
EHFZ 231355Z AUTO 21026KT 9999 NCD 12/09 Q1016

2020/05/23 13:55
EHFD 231355Z AUTO 00000KT 9999 NCD 12/08 Q1014

2020/05/23 13:55
EHDV 231355Z AUTO 22023KT //// // ///////// 12/08 Q1014 RE//

2020/05/23 13:55
EHAK 231355Z AUTO 23030KT 9999 NCD 12/08 Q1012

2020/05/23 13:55
EHAM 231355Z 24024KT 9999 FEW035 17/07 Q1021 NOSIG

2020/05/23 13:55
EHLW 231355Z AUTO 25025KT 9999 NCD 17/07 Q1019 BLU

2020/05/23 13:55
EHLE 231355Z AUTO 26021KT 230V290 9999 BKN042 BKN048 18/06 Q1021 NOSIG

2020/05/23 13:55
EHKD 231355Z AUTO 22023KT 9999 NCD 16/10 Q1020 BLU 24020G32KT 9999 FEW020

2020/05/23 13:55
EHGR 231355Z AUTO 25012G22KT 200V280 9999 FEW022 SCT054 BKN066 18/07 Q1022 BLU

2020/05/23 13:55
EHGG 231355Z AUTO 25017KT 210V290 9999 SCT043 18/07 Q1019 TEMPO 26017G27KT

2020/05/23 13:55
EHDL 231355Z AUTO 24017G27KT 180V300 9999 FEW058 BKN063 BKN070 19/04 Q1021 BLU

2020/05/23 13:55
EHBK 231355Z AUTO 27011KT 210V330 9999 NSC 18/03 Q1023 NOSIG

2020/05/23 13:55
EHEH 231355Z AUTO 29015KT 200V330 9999 -RA FEW025CB BKN053 OVC062 14/08 Q1023 BLU 26014G25KT CAVOK TEMPO FEW045CB SCT070

2020/05/23 13:55
EHRD 231355Z AUTO 24020KT 210V270 9999 BKN030 BKN038 17/09 Q1022 NOSIG

2020/05/23 13:55
EHFS 231355Z AUTO 26026KT 9999 NCD 16/09 Q1023

2020/05/23 14:09
EHGR 231409Z AUTO 26012KT 220V320 9999 FEW046CB SCT047 BKN059 18/06 Q1022 BLU

2020/05/23 14:16
EHGR 231416Z AUTO 27015G25KT 220V310 9999 FEW050 SCT073 BKN087 19/06 Q1022 BLU

2020/05/23 14:25
EHHW 231425Z AUTO 24023KT 9999 NCD 12/09 Q1018

2020/05/23 14:25
EHSC 231425Z AUTO 24030KT 9000 ///////// 13/10 Q1021 W13/H19

2020/05/23 14:25
EHSA 231425Z AUTO 21033KT 9999 ///////// 13/10 Q1022 W10/H19

2020/05/23 14:25
EHPG 231425Z AUTO 22030KT 9000 NSC 13/11 Q1020

2020/05/23 14:25
EHMG 231425Z AUTO 23029KT 9999 NCD 13/10 Q1019

2020/05/23 14:25
EHMA 231425Z AUTO 25026KT 9999 +DZ FEW031 15/06 Q1019

2020/05/23 14:25
EHKV 231425Z AUTO 13026KT 9999 NSC 13/09 Q1020

2020/05/23 14:25
EHJR 231425Z AUTO 22023KT //// // ///////// 12/09 Q1019 RE// W12/H15

2020/05/23 14:25
EHQE 231425Z AUTO 18029KT 9999 NSC 13/10 Q1019

2020/05/23 14:25
EHWO 231425Z AUTO 27015KT 230V310 9999 FEW047 SCT056 BKN067 18/08 Q1023 BLU

2020/05/23 14:25
EHVL 231425Z AUTO 23028KT 9000 HZ NCD 15/09 Q1019 BLU

2020/05/23 14:25
EHVK 231425Z AUTO 23023G34KT 200V300 9999 DZRA FEW027CB BKN060 OVC065 14/08 Q1022 BLU

2020/05/23 14:25
EHJA 231425Z AUTO 21027KT 9999 NCD 13/08 Q1017

2020/05/23 14:25
EHFZ 231425Z AUTO 21027KT 9999 NCD 13/08 Q1016

2020/05/23 14:25
EHFD 231425Z AUTO 00000KT 9999 NCD 12/08 Q1014

2020/05/23 14:25
EHDV 231425Z AUTO 23024KT //// // ///////// 12/08 Q1015 RE//

2020/05/23 14:25
EHAK 231425Z AUTO 22029KT 190V250 9999 NSC 12/08 Q1012

2020/05/23 14:25
EHAM 231425Z 25022G35KT 200V270 9999 FEW038 18/07 Q1021 NOSIG

2020/05/23 14:25
EHLW 231425Z AUTO 24025KT 200V270 9999 FEW034 SCT040 16/07 Q1020 BLU

2020/05/23 14:25
EHLE 231425Z AUTO 26021G35KT 230V290 9999 SCT046 18/06 Q1021 NOSIG

2020/05/23 14:25
EHKD 231425Z AUTO 23021KT 190V260 9999 NCD 16/10 Q1020 BLU 24020G32KT 9999 FEW020

2020/05/23 14:25
EHGR 231425Z AUTO 27013KT 220V310 9999 BKN050 BKN059 BKN090 19/07 Q1022 BLU

2020/05/23 14:25
EHGG 231425Z AUTO 25017KT 220V290 9999 FEW046 17/06 Q1020 TEMPO 26017G27KT

2020/05/23 14:25
EHDL 231425Z AUTO 26014G24KT 170V300 9999 BKN050 BKN056 19/04 Q1021 BLU

2020/05/23 14:25
EHBK 231425Z AUTO 26010KT 190V320 9999 FEW034 17/04 Q1023 TEMPO 7000 -SHRA FEW040CB

2020/05/23 14:25
EHEH 231425Z AUTO 28007KT 230V010 9999 FEW035CB SCT062 18/09 Q1023 BLU 26014G25KT CAVOK TEMPO FEW045CB SCT070

2020/05/23 14:25
EHRD 231425Z AUTO 24018KT 210V280 9999 FEW032 17/08 Q1022 NOSIG

2020/05/23 14:25
EHFS 231425Z AUTO 26029KT 9999 NSC 15/09 Q1023

2020/05/23 14:34
EHEH 231434Z AUTO 28009KT 230V010 9999 FEW037CB SCT063 BKN088 17/08 Q1023 BLU 26012KT CAVOK TEMPO 29015G25KT FEW045CB SCT070

2020/05/23 14:44
EHVK 231444Z AUTO 23013G24KT 180V260 4500 RA FEW029CB SCT049 BKN056 15/07 Q1023 GRN

2020/05/23 14:50
EHVK 231450Z AUTO 23013G24KT 190V270 9999 RA FEW001 FEW023CB BKN047 BKN053 14/08 Q1023 BLU

2020/05/23 14:55
EHHW 231455Z AUTO 24023KT 9999 NSC 13/09 Q1018

2020/05/23 14:55
EHSC 231455Z AUTO 24031KT 9000 ///////// 13/10 Q1021 W13/H19

2020/05/23 14:55
EHSA 231455Z AUTO 22031KT 9999 ///////// 13/10 Q1022 W10/H20

2020/05/23 14:55
EHPG 231455Z AUTO 23030KT 9000 NSC 13/11 Q1020

2020/05/23 14:55
EHMG 231455Z AUTO 23031KT 9999 NCD 13/10 Q1019

2020/05/23 14:55
EHMA 231455Z AUTO 24027KT 9999 FEW034 SCT040 15/07 Q1019 REDZ

2020/05/23 14:55
EHKV 231455Z AUTO 14028KT 9999 NSC 13/09 Q1020

2020/05/23 14:55
EHJR 231455Z AUTO 23024KT //// // ///////// 13/08 Q1019 RE// W12/H16

2020/05/23 14:55
EHQE 231455Z AUTO 18029KT 9999 NSC 13/10 Q1019

2020/05/23 14:55
EHWO 231455Z AUTO 26018KT 220V300 9999 FEW041CB SCT042 OVC170 18/07 Q1023 BLU

2020/05/23 14:55
EHVL 231455Z AUTO 23029KT 9999 NCD 15/09 Q1019 BLU

2020/05/23 14:55
EHVK 231455Z AUTO 23010G24KT 190V290 9999 FEW001 FEW028CB SCT049 BKN076 16/09 Q1022 RERA BLU

2020/05/23 14:55
EHJA 231455Z AUTO 22026KT 9999 NSC 13/07 Q1017

2020/05/23 14:55
EHFZ 231455Z AUTO 21026KT 9999 NCD 12/09 Q1017

2020/05/23 14:55
EHFD 231455Z AUTO 00000KT //// // NCD 12/08 Q1014

2020/05/23 14:55
EHDV 231455Z AUTO 23021KT //// // ///////// 12/08 Q1015 RE//

2020/05/23 14:55
EHAK 231455Z AUTO 22030KT 190V250 9999 NSC 12/08 Q1013

2020/05/23 14:55
EHAM 231455Z 24022KT 190V270 9999 FEW035 17/06 Q1021 NOSIG

2020/05/23 14:55
EHLW 231455Z AUTO 25024KT 210V270 9999 FEW032 SCT045 17/07 Q1020 BLU

2020/05/23 14:55
EHLE 231455Z AUTO 25022KT 9999 FEW049 18/05 Q1021 NOSIG

2020/05/23 14:55
EHKD 231455Z AUTO 23021KT 190V260 9999 NCD 15/10 Q1020 BLU 24020G32KT 9999 FEW020

2020/05/23 14:55
EHGR 231455Z AUTO 26016G27KT 230V300 9999 FEW050 18/05 Q1022 BLU

2020/05/23 14:55
EHGG 231455Z AUTO 26018KT 220V300 9999 FEW043 17/06 Q1020 TEMPO 26017G27KT

2020/05/23 14:55
EHDL 231455Z AUTO 24017G28KT 200V330 9999 SCT053 19/04 Q1021 BLU

2020/05/23 14:55
EHBK 231455Z AUTO 27011KT 210V320 9999 NSC 18/04 Q1023 NOSIG

2020/05/23 14:55
EHEH 231455Z AUTO 25009KT 230V300 9999 FEW057 SCT085 19/07 Q1022 BLU 26012KT CAVOK TEMPO 29015G25KT FEW045CB SCT070

2020/05/23 14:55
EHRD 231455Z AUTO 24021KT 200V270 9999 FEW032 SCT037 17/07 Q1022 NOSIG

2020/05/23 14:55
EHFS 231455Z AUTO 25031KT 9999 NSC 15/09 Q1023

2020/05/23 15:09
EHVK 231509Z AUTO 24008KT 220V300 9999 NCD 17/08 Q1022 BLU

2020/05/23 15:25
EHHW 231525Z AUTO 24025KT 9999 NSC 13/09 Q1019

2020/05/23 15:25
EHSC 231525Z AUTO 25025KT 9999 ///////// 13/10 Q1021 W13/H21

2020/05/23 15:25
EHSA 231525Z AUTO 22032KT 9999 ///////// 14/08 Q1023 W10/H20

2020/05/23 15:25
EHPG 231525Z AUTO 24026KT 9999 NSC 13/10 Q1021

2020/05/23 15:25
EHMG 231525Z AUTO 23031KT 9999 NCD 13/10 Q1019

2020/05/23 15:25
EHMA 231525Z AUTO 24025KT 9999 -RADZ FEW028 SCT037 15/08 Q1019

2020/05/23 15:25
EHKV 231525Z AUTO 15025KT 9999 NSC 13/08 Q1020

2020/05/23 15:25
EHJR 231525Z AUTO 23022KT //// // ///////// 13/08 Q1019 RE// W12/H16

2020/05/23 15:25
EHQE 231525Z AUTO 19030KT 9999 NSC 13/10 Q1020

2020/05/23 15:25
EHWO 231525Z AUTO 27018KT 230V310 9999 FEW059 SCT069 OVC140 17/08 Q1023 BLU

2020/05/23 15:25
EHVL 231525Z AUTO 23028KT 9000 HZ SCT067 OVC072 15/09 Q1019 BLU

2020/05/23 15:25
EHVK 231525Z AUTO 24010KT 210V270 9999 SCT052 BKN061 BKN069 17/07 Q1022 BLU

2020/05/23 15:25
EHJA 231525Z AUTO 22026KT 9999 NSC 13/07 Q1017

2020/05/23 15:25
EHFZ 231525Z AUTO VRB25KT 9999 NCD 12/09 Q1017

2020/05/23 15:25
EHFD 231525Z AUTO 00000KT //// // NCD 12/08 Q1014 RE//

2020/05/23 15:25
EHDV 231525Z AUTO 24020KT //// // ///////// 12/08 Q1015 RE//

2020/05/23 15:25
EHAK 231525Z AUTO 23031KT 9999 NSC 12/08 Q1013

2020/05/23 15:25
EHAM 231525Z 24022G32KT 210V280 9999 FEW035 17/07 Q1021 NOSIG

2020/05/23 15:25
EHLW 231525Z AUTO 24022KT 210V270 9999 SCT035 SCT052 16/07 Q1020 BLU

2020/05/23 15:25
EHLE 231525Z AUTO 26021KT 220V290 9999 NSC 18/05 Q1021 NOSIG

2020/05/23 15:25
EHKD 231525Z AUTO 23022KT 200V260 9999 NCD 16/09 Q1020 BLU 24020G32KT 9999 FEW020

2020/05/23 15:25
EHGR 231525Z AUTO 26013KT 210V310 9999 SCT050 SCT068 BKN081 18/06 Q1023 BLU

2020/05/23 15:25
EHGG 231525Z AUTO 26013KT 220V310 9999 FEW049 16/05 Q1020 TEMPO 26017G27KT

2020/05/23 15:25
EHDL 231525Z AUTO 26013G27KT 220V330 9999 SCT053 SCT064 18/05 Q1022 BLU

2020/05/23 15:25
EHBK 231525Z AUTO 26012KT 210V320 9999 NSC 18/04 Q1023 NOSIG

2020/05/23 15:25
EHEH 231525Z AUTO 26014KT 210V290 9999 FEW083 SCT095 19/04 Q1022 BLU

2020/05/23 15:25
EHRD 231525Z AUTO 24019KT 210V010 9999 FEW029 SCT032 18/09 Q1022 NOSIG

2020/05/23 15:25
EHFS 231525Z AUTO 25031KT 9999 NSC 15/09 Q1023

2020/05/23 15:46
EHVL 231546Z AUTO 24029KT 7000 -RADZ FEW042 SCT054 BKN064 14/10 Q1019 WHT

2020/05/23 15:55
EHHW 231555Z AUTO 24024KT 9999 NCD 13/09 Q1019

2020/05/23 15:55
EHSC 231555Z AUTO 25032KT 9999 ///////// 13/08 Q1021 W13/H19

2020/05/23 15:55
EHSA 231555Z AUTO 22028KT 9999 ///////// 13/09 Q1023 W10/H21

2020/05/23 15:55
EHPG 231555Z AUTO 23023KT 9999 NSC 13/09 Q1021

2020/05/23 15:55
EHMG 231555Z AUTO 23033KT 9999 NSC 13/10 Q1019

2020/05/23 15:55
EHMA 231555Z AUTO 24027KT 9999 DZ FEW028 SCT033 15/09 Q1019

2020/05/23 15:55
EHKV 231555Z AUTO 14025KT 9999 NSC 13/09 Q1020

2020/05/23 15:55
EHJR 231555Z AUTO 23021KT //// // ///////// 13/08 Q1019 RE// W12/H15

2020/05/23 15:55
EHQE 231555Z AUTO 20028KT 9999 NSC 13/09 Q1020

2020/05/23 15:55
EHWO 231555Z AUTO 27020KT 220V310 9999 FEW058 OVC130 18/07 Q1023 BLU

2020/05/23 15:55
EHVL 231555Z AUTO 24026KT 9999 FEW048 SCT064 BKN073 15/10 Q1019 REDZ BLU

2020/05/23 15:55
EHVK 231555Z AUTO 25010KT 230V290 9999 FEW032CB SCT056 BKN076 17/09 Q1022 RERA BLU

2020/05/23 15:55
EHJA 231555Z AUTO 22029KT 9999 NSC 13/07 Q1017

2020/05/23 15:55
EHFZ 231555Z AUTO 22025KT 9999 NCD 13/08 Q1017

2020/05/23 15:55
EHFD 231555Z AUTO 00000KT //// // NSC 12/08 Q1015 RE//

2020/05/23 15:55
EHDV 231555Z AUTO 24021KT //// // ///////// 12/08 Q1015 RE//

2020/05/23 15:55
EHAK 231555Z AUTO 23029KT 9999 NSC 12/08 Q1013

2020/05/23 15:55
EHAM 231555Z 25022KT 220V280 9999 FEW027 17/09 Q1022 NOSIG

2020/05/23 15:55
EHLW 231555Z AUTO 25023KT 9999 NCD 17/07 Q1020 BLU

2020/05/23 15:55
EHLE 231555Z AUTO 26021G31KT 220V290 9999 NSC 18/05 Q1021 NOSIG

2020/05/23 15:55
EHKD 231555Z AUTO 23022KT 200V260 9999 FEW071 SCT077 BKN087 15/10 Q1020 BLU 24020G32KT 9999 FEW020

2020/05/23 15:55
EHGR 231555Z AUTO 24010KT 210V280 9999 BKN046 OVC052 17/07 Q1023 BLU

2020/05/23 15:55
EHGG 231555Z AUTO 25016KT 220V290 9999 SCT045 17/07 Q1020 TEMPO 26017G27KT

2020/05/23 15:55
EHDL 231555Z AUTO 26015G27KT 190V320 9999 SCT051 BKN056 BKN079 18/04 Q1022 BLU

2020/05/23 15:55
EHBK 231555Z AUTO 25012KT 200V300 9999 NSC 18/04 Q1023 NOSIG

2020/05/23 15:55
EHEH 231555Z AUTO 26015KT 220V310 9999 FEW063 SCT075 BKN081 18/05 Q1023 BLU

2020/05/23 15:55
EHRD 231555Z AUTO 25019KT 210V280 9999 NSC 17/08 Q1022 NOSIG

2020/05/23 15:55
EHFS 231555Z AUTO 25031KT 9999 NSC 15/09 Q1023

2020/05/23 16:09
EHVL 231609Z AUTO 24027KT 9000 HZ FEW089 14/09 Q1019 BLU

2020/05/23 16:25
EHHW 231625Z AUTO 24022KT 9999 NCD 13/09 Q1019

2020/05/23 16:25
EHSC 231625Z AUTO 24030KT 9999 ///////// 13/10 Q1021 W13/H20

2020/05/23 16:25
EHSA 231625Z AUTO 21027KT 9999 ///////// 13/10 Q1022 W10/H22

2020/05/23 16:25
EHPG 231625Z AUTO 22029KT 9999 NSC 13/09 Q1020

2020/05/23 16:25
EHMG 231625Z AUTO 23031KT 9999 NSC 13/10 Q1019

2020/05/23 16:25
EHMA 231625Z AUTO 25026KT 9999 DZ FEW031 15/07 Q1019

2020/05/23 16:25
EHKV 231625Z AUTO 14026KT 9999 NSC 13/08 Q1020

2020/05/23 16:25
EHJR 231625Z AUTO 23029KT //// // ///////// 13/08 Q1019 RE// W12/H14

2020/05/23 16:25
EHQE 231625Z AUTO 19025KT 9999 NCD 13/10 Q1020

2020/05/23 16:25
EHWO 231625Z AUTO 26019KT 230V300 9999 SCT120 18/05 Q1023 BLU

2020/05/23 16:25
EHVL 231625Z AUTO 24027KT 9999 SCT076 OVC093 14/09 Q1019 BLU

2020/05/23 16:25
EHVK 231625Z AUTO 25014G25KT 220V300 9999 FEW054 SCT079 OVC170 17/06 Q1022 BLU

2020/05/23 16:25
EHJA 231625Z AUTO 24031KT 9999 NSC 13/08 Q1017

2020/05/23 16:25
EHFZ 231625Z AUTO 22025KT 9999 NSC 13/08 Q1017

2020/05/23 16:25
EHFD 231625Z AUTO 00000KT //// // NSC 13/08 Q1015 RE//

2020/05/23 16:25
EHDV 231625Z AUTO 24020KT //// // ///////// 12/08 Q1015 RE//

2020/05/23 16:25
EHAK 231625Z AUTO 23029KT 9999 NSC 12/07 Q1013

2020/05/23 16:25
EHAM 231625Z 24023KT 220V290 9999 FEW027 16/08 Q1022 NOSIG

2020/05/23 16:25
EHLW 231625Z AUTO 25023KT 220V280 9999 FEW039 BKN074 BKN080 17/07 Q1020 BLU

2020/05/23 16:25
EHLE 231625Z AUTO 26024KT 9999 NSC 18/04 Q1021 NOSIG

2020/05/23 16:25
EHKD 231625Z AUTO 23023KT 200V260 9999 SCT076 SCT082 15/10 Q1020 BLU 24020G32KT 9999 FEW020

2020/05/23 16:25
EHGR 231625Z AUTO 27016G26KT 230V300 9999 FEW045 OVC130 18/06 Q1023 BLU

2020/05/23 16:25
EHGG 231625Z AUTO 25015KT 210V280 9999 SCT044 17/06 Q1020 TEMPO 26017G27KT

2020/05/23 16:25
EHDL 231625Z AUTO 25014G25KT 170V320 9999 OVC160 18/04 Q1022 BLU

2020/05/23 16:25
EHBK 231625Z AUTO 26012G25KT 220V320 9999 NSC 18/03 Q1024 NOSIG

2020/05/23 16:25
EHEH 231625Z AUTO 27009KT 220V340 9999 FEW065 SCT078 BKN097 17/06 Q1023 BLU

2020/05/23 16:25
EHRD 231625Z AUTO 26016G27KT 220V010 9999 SCT035 SCT040 17/07 Q1022 NOSIG

2020/05/23 16:25
EHFS 231625Z AUTO 25029KT 220V280 9000 NCD 15/10 Q1023

2020/05/23 16:55
EHHW 231655Z AUTO 24022KT 9999 NSC 13/09 Q1019

2020/05/23 16:55
EHSC 231655Z AUTO 25027KT 9999 ///////// 13/10 Q1021 W13/H20

2020/05/23 16:55
EHSA 231655Z AUTO 22029KT 9999 ///////// 13/09 Q1023 W10/H24

2020/05/23 16:55
EHPG 231655Z AUTO 23031KT 9999 NSC 13/10 Q1020

2020/05/23 16:55
EHMG 231655Z AUTO 23028KT 9999 NSC 13/10 Q1019

2020/05/23 16:55
EHMA 231655Z AUTO 25026KT 9999 NSC 15/08 Q1019 REDZ

2020/05/23 16:55
EHKV 231655Z AUTO 14027KT 9999 NSC 13/08 Q1019

2020/05/23 16:55
EHJR 231655Z AUTO 23027KT //// // ///////// 13/08 Q1019 RE// W12/H17

2020/05/23 16:55
EHQE 231655Z AUTO 20028KT 9999 NSC 13/08 Q1020

2020/05/23 16:55
EHWO 231655Z AUTO 26022KT 230V310 9999 SCT047 BKN052 18/05 Q1023 BLU

2020/05/23 16:55
EHVL 231655Z AUTO 23026KT 9999 NCD 14/09 Q1019 BLU

2020/05/23 16:55
EHVK 231655Z AUTO 26008KT 240V300 9999 FEW024CB SCT059 BKN069 14/08 Q1023 RERA BLU

2020/05/23 16:55
EHJA 231655Z AUTO 24025KT 9999 NSC 13/08 Q1017

2020/05/23 16:55
EHFZ 231655Z AUTO VRB25KT 9999 NSC 13/09 Q1017

2020/05/23 16:55
EHFD 231655Z AUTO 00000KT //// // NSC 12/08 Q1015 RE//

2020/05/23 16:55
EHDV 231655Z AUTO 24020KT //// // ///////// 12/08 Q1016 RE//

2020/05/23 16:55
EHAK 231655Z AUTO 23029KT 9999 NSC 12/08 Q1013

2020/05/23 16:55
EHAM 231655Z 25022KT 220V280 9999 FEW030 16/08 Q1022 NOSIG

2020/05/23 16:55
EHLW 231655Z AUTO 24022KT 200V270 9999 FEW036 BKN086 BKN094 16/08 Q1020 BLU

2020/05/23 16:55
EHLE 231655Z AUTO 26019KT 220V280 9999 SCT048 18/05 Q1021 NOSIG

2020/05/23 16:55
EHKD 231655Z AUTO 23020KT 200V260 9999 NCD 15/10 Q1020 BLU 24020G32KT 9999 FEW020

2020/05/23 16:55
EHGR 231655Z AUTO 26015KT 230V300 9999 BKN140 18/05 Q1023 BLU

2020/05/23 16:55
EHGG 231655Z AUTO 26014KT 220V300 9999 FEW047 16/05 Q1020 TEMPO 26017G27KT

2020/05/23 16:55
EHDL 231655Z AUTO 24019KT 200V330 9999 SCT049 SCT053 OVC190 18/05 Q1022 BLU

2020/05/23 16:55
EHBK 231655Z AUTO 26012KT 200V320 9999 NSC 18/03 Q1024 NOSIG

2020/05/23 16:55
EHEH 231655Z AUTO 27013KT 220V310 9999 FEW056 SCT076 OVC130 18/06 Q1023 BLU

2020/05/23 16:55
EHRD 231655Z AUTO 25019KT 220V280 9999 NCD 16/07 Q1023 NOSIG

2020/05/23 16:55
EHFS 231655Z AUTO 25031KT 9999 NCD 15/09 Q1023

2020/05/23 17:10
EHKD 231710Z AUTO 23017G27KT 200V260 9999 NCD 15/10 Q1020 BLU FCST CANCEL

2020/05/23 17:11
EHKD 231711Z AUTO 23017G27KT 200V260 9999 NCD 15/10 Q1020 BLU

2020/05/23 17:25
EHHW 231725Z AUTO 24024KT 9999 NSC 13/09 Q1019

2020/05/23 17:25
EHSC 231725Z AUTO 24028KT 9999 ///////// 14/10 Q1022 W13/H19

2020/05/23 17:25
EHSA 231725Z AUTO 21029KT 9999 ///////// 13/10 Q1023 W10/H22

2020/05/23 17:25
EHPG 231725Z AUTO 23029KT 9999 NSC 13/09 Q1021

2020/05/23 17:25
EHMG 231725Z AUTO 23030KT 9999 NSC 13/09 Q1019

2020/05/23 17:25
EHMA 231725Z AUTO 24023KT 9999 NSC 15/09 Q1019

2020/05/23 17:25
EHKV 231725Z AUTO 15030KT 9999 NSC 13/08 Q1020

2020/05/23 17:25
EHJR 231725Z AUTO 24028KT //// // ///////// 13/08 Q1019 RE// W12/H17

2020/05/23 17:25
EHQE 231725Z AUTO 19029KT 9999 NSC 13/09 Q1020

2020/05/23 17:25
EHWO 231725Z AUTO 26020KT 220V310 9999 NCD 17/06 Q1024 BLU

2020/05/23 17:25
EHVL 231725Z AUTO 23023KT 9999 NCD 14/09 Q1019 BLU

2020/05/23 17:25
EHVK 231725Z AUTO 25008KT 230V290 9999 FEW048 SCT060 OVC170 16/09 Q1023 BLU

2020/05/23 17:25
EHJA 231725Z AUTO 24025KT 9999 NSC 13/07 Q1017

2020/05/23 17:25
EHFZ 231725Z AUTO 22027KT 9999 NSC 13/08 Q1017

2020/05/23 17:25
EHFD 231725Z AUTO 00000KT //// // NSC 12/08 Q1015 RE//

2020/05/23 17:25
EHDV 231725Z AUTO 24019KT //// // ///////// 12/08 Q1016 RE//

2020/05/23 17:25
EHAK 231725Z AUTO 23031KT 9999 NSC 12/08 Q1013

2020/05/23 17:25
EHAM 231725Z 24021KT 210V270 9999 FEW028 16/07 Q1022 NOSIG

2020/05/23 17:25
EHLW 231725Z AUTO 24021G31KT 210V270 9999 NCD 16/09 Q1020 BLU

2020/05/23 17:25
EHLE 231725Z AUTO 26019KT 230V290 9999 SCT043 BKN048 17/07 Q1022 NOSIG

2020/05/23 17:25
EHKD 231725Z AUTO 23017KT 200V260 9999 NCD 15/09 Q1020 BLU

2020/05/23 17:25
EHGR 231725Z AUTO 27015G25KT 230V300 9999 FEW051 17/04 Q1023 BLU

2020/05/23 17:25
EHGG 231725Z AUTO 25017KT 220V290 9999 FEW047 16/06 Q1020 TEMPO 26018G30KT 7000 -SHRA FEW040CB

2020/05/23 17:25
EHDL 231725Z AUTO 25014KT 190V310 9999 SCT220 18/04 Q1022 BLU

2020/05/23 17:25
EHBK 231725Z AUTO 24014KT 200V290 9999 NSC 18/03 Q1024 NOSIG

2020/05/23 17:25
EHEH 231725Z AUTO 27011G21KT 220V310 9999 SCT058 SCT068 18/05 Q1023 BLU

2020/05/23 17:25
EHRD 231725Z AUTO 24019KT 210V010 9999 NCD 16/08 Q1023 NOSIG

2020/05/23 17:25
EHFS 231725Z AUTO 25029KT 9999 NSC 15/09 Q1024

2020/05/23 17:55
EHHW 231755Z AUTO 24023KT 9999 NSC 13/09 Q1019

2020/05/23 17:55
EHSC 231755Z AUTO 24027KT 9000 ///////// 13/10 Q1022 W13/H18

2020/05/23 17:55
EHSA 231755Z AUTO 21028KT 9999 ///////// 13/10 Q1023 W10/H22

2020/05/23 17:55
EHPG 231755Z AUTO 23032KT 9999 NSC 13/10 Q1021

2020/05/23 17:55
EHMG 231755Z AUTO 23032KT 9999 NSC 13/09 Q1019

2020/05/23 17:55
EHMA 231755Z AUTO 25025KT 9999 NSC 15/08 Q1020 REDZ

2020/05/23 17:55
EHKV 231755Z AUTO 15025KT 9999 NSC 13/08 Q1020

2020/05/23 17:55
EHJR 231755Z AUTO 23025KT //// // ///////// 13/08 Q1019 RE// W12/H17

2020/05/23 17:55
EHQE 231755Z AUTO 19029KT 9999 NSC 13/09 Q1020

2020/05/23 17:55
EHWO 231755Z AUTO 26017KT 230V290 9999 FEW045 SCT060 17/07 Q1024 BLU

2020/05/23 17:55
EHVL 231755Z AUTO 23024KT 9999 NCD 14/09 Q1020 BLU

2020/05/23 17:55
EHVK 231755Z AUTO 25013KT 230V300 9999 FEW054 16/06 Q1023 BLU

2020/05/23 17:55
EHJA 231755Z AUTO 23023KT 9999 NSC 12/08 Q1018

2020/05/23 17:55
EHFZ 231755Z AUTO 23025KT 9999 NSC 13/08 Q1017

2020/05/23 17:55
EHFD 231755Z AUTO 00000KT 9999 NSC 12/08 Q1015

2020/05/23 17:55
EHDV 231755Z AUTO 25022KT //// // ///////// 12/07 Q1016 RE//

2020/05/23 17:55
EHAK 231755Z AUTO 24032KT 9999 NSC 12/08 Q1013

2020/05/23 17:55
EHAM 231755Z 24020KT 210V270 CAVOK 15/08 Q1022 NOSIG

2020/05/23 17:55
EHLW 231755Z AUTO 24018KT 9999 NCD 15/08 Q1020 BLU

2020/05/23 17:55
EHLE 231755Z AUTO 24020G30KT 9999 NCD 16/07 Q1022 NOSIG

2020/05/23 17:55
EHKD 231755Z AUTO 23020KT 200V260 9999 NCD 14/08 Q1021 BLU

2020/05/23 17:55
EHGR 231755Z AUTO 26013G26KT 230V300 9999 FEW048 17/05 Q1024 BLU

2020/05/23 17:55
EHGG 231755Z AUTO 25018KT 210V290 9999 NSC 16/06 Q1021 TEMPO 26018G30KT 7000 -SHRA FEW040CB

2020/05/23 17:55
EHDL 231755Z AUTO 24014G24KT 180V310 9999 NCD 17/03 Q1023 BLU

2020/05/23 17:55
EHBK 231755Z AUTO 25012KT 200V310 9999 NSC 17/02 Q1025 NOSIG

2020/05/23 17:55
EHEH 231755Z AUTO 25017KT 210V280 9999 NCD 17/03 Q1024 BLU

2020/05/23 17:55
EHRD 231755Z AUTO 25018KT 210V010 9999 NCD 16/07 Q1023 NOSIG

2020/05/23 17:55
EHFS 231755Z AUTO 24030KT 9999 NCD 15/09 Q1024

2020/05/23 18:25
EHHW 231825Z AUTO 24025KT 9999 NSC 13/09 Q1019

2020/05/23 18:25
EHSC 231825Z AUTO 24029KT 9000 ///////// 13/10 Q1022 W13/H19

2020/05/23 18:25
EHSA 231825Z AUTO 21028KT 9999 ///////// 13/10 Q1023 W10/H23

2020/05/23 18:25
EHPG 231825Z AUTO 23028KT 9999 FEW031 13/10 Q1021

2020/05/23 18:25
EHMG 231825Z AUTO 23030KT 9999 NSC 13/09 Q1019

2020/05/23 18:25
EHMA 231825Z AUTO 24023KT 9999 NSC 15/07 Q1020

2020/05/23 18:25
EHKV 231825Z AUTO 13029KT 9999 NSC 13/09 Q1020

2020/05/23 18:25
EHJR 231825Z AUTO 23021KT //// // ///////// 13/09 Q1020 RE// W12/H16

2020/05/23 18:25
EHQE 231825Z AUTO 19026KT 9999 FEW015CB 13/09 Q1020

2020/05/23 18:25
EHWO 231825Z AUTO 26016KT 230V300 9999 FEW041 BKN200 16/07 Q1024 BLU

2020/05/23 18:25
EHVL 231825Z AUTO 23027KT 9999 FEW095 14/08 Q1020 BLU

2020/05/23 18:25
EHVK 231825Z AUTO 27013KT 230V310 9999 NCD 16/04 Q1024 BLU

2020/05/23 18:25
EHJA 231825Z AUTO 24025KT 9999 NSC 13/07 Q1018

2020/05/23 18:25
EHFZ 231825Z AUTO 24022KT 9999 NSC 13/07 Q1018

2020/05/23 18:25
EHFD 231825Z AUTO 00000KT 9999 NSC 12/08 Q1015

2020/05/23 18:25
EHDV 231825Z AUTO 26023KT //// // ///////// 13/07 Q1016 RE//

2020/05/23 18:25
EHAK 231825Z AUTO 24032KT 9999 FEW048/// 12/08 Q1013

2020/05/23 18:25
EHAM 231825Z 24019KT CAVOK 15/08 Q1022 NOSIG

2020/05/23 18:25
EHLW 231825Z AUTO 24020KT 200V270 9999 FEW083 SCT090 15/07 Q1020 BLU

2020/05/23 18:25
EHLE 231825Z AUTO 25020KT 220V280 9999 NCD 16/05 Q1022 NOSIG

2020/05/23 18:25
EHKD 231825Z AUTO 23019KT 200V260 9999 BKN260 14/09 Q1021 BLU

2020/05/23 18:25
EHGR 231825Z AUTO 26012KT 230V300 9999 NCD 16/05 Q1024 BLU

2020/05/23 18:25
EHGG 231825Z AUTO 25014KT 220V280 9999 FEW040 15/07 Q1021 NOSIG

2020/05/23 18:25
EHDL 231825Z AUTO 24016KT 170V300 9999 NCD 16/06 Q1023 BLU

2020/05/23 18:25
EHBK 231825Z AUTO 25013KT 210V290 9999 NSC 16/03 Q1025 NOSIG

2020/05/23 18:25
EHEH 231825Z AUTO 27012KT 220V310 9999 NCD 17/04 Q1024 BLU

2020/05/23 18:25
EHRD 231825Z AUTO 23020G33KT 190V260 9999 NCD 15/08 Q1023 NOSIG

2020/05/23 18:25
EHFS 231825Z AUTO 24028KT 9999 NSC 15/08 Q1024

2020/05/23 18:50
EHVL 231850Z AUTO 24032KT 6000 -RADZ FEW035 BKN070 OVC076 12/08 Q1020 WHT

2020/05/23 18:55
EHHW 231855Z AUTO 25024KT 9999 NSC 13/09 Q1019

2020/05/23 18:55
EHSC 231855Z AUTO 24027KT 9999 ///////// 13/10 Q1022 W13/H17

2020/05/23 18:55
EHSA 231855Z AUTO 22028KT 9999 ///////// 13/10 Q1023 W10/H20

2020/05/23 18:55
EHPG 231855Z AUTO 23033KT 9999 NSC 13/10 Q1021

2020/05/23 18:55
EHMG 231855Z AUTO 23030KT 9999 NSC 13/10 Q1020

2020/05/23 18:55
EHMA 231855Z AUTO 24023KT 9999 NCD 15/08 Q1020

2020/05/23 18:55
EHKV 231855Z AUTO 15024KT 9999 NSC 13/09 Q1021

2020/05/23 18:55
EHJR 231855Z AUTO 26022KT //// // ///////// 14/08 Q1020 RE// W12/H18

2020/05/23 18:55
EHQE 231855Z AUTO 19030KT 9999 FEW018CB 13/09 Q1020

2020/05/23 18:55
EHWO 231855Z AUTO 24015KT 210V270 9999 FEW083 15/06 Q1024 BLU

2020/05/23 18:55
EHVL 231855Z AUTO 24029KT 5000 +DZ FEW035 BKN049 BKN064 11/09 Q1020 WHT

2020/05/23 18:55
EHVK 231855Z AUTO 26009KT 230V290 9999 NCD 16/06 Q1024 BLU

2020/05/23 18:55
EHJA 231855Z AUTO 24026KT 9999 NSC 13/07 Q1018

2020/05/23 18:55
EHFZ 231855Z AUTO 24021KT 9999 NSC 13/07 Q1018

2020/05/23 18:55
EHFD 231855Z AUTO 00000KT 9999 NSC 12/08 Q1015 RE//

2020/05/23 18:55
EHDV 231855Z AUTO 25020KT //// // ///////// 12/07 Q1017 RE//

2020/05/23 18:55
EHAK 231855Z AUTO 24032KT 9999 SCT048/// 12/08 Q1013

2020/05/23 18:55
EHAM 231855Z 24021KT CAVOK 15/08 Q1022 NOSIG

2020/05/23 18:55
EHLW 231855Z AUTO 24019KT 210V280 9999 NCD 15/07 Q1021 BLU

2020/05/23 18:55
EHLE 231855Z AUTO 25016KT 210V290 9999 NCD 15/06 Q1022 NOSIG

2020/05/23 18:55
EHKD 231855Z AUTO 23020KT 210V270 9999 FEW018CB BKN063 BKN075 BKN081 14/09 Q1021 BLU

2020/05/23 18:55
EHGR 231855Z AUTO 26009G19KT 230V290 9999 FEW047 BKN230 16/06 Q1024 BLU

2020/05/23 18:55
EHGG 231855Z AUTO 24012KT 200V280 9999 SCT037 SCT047 15/07 Q1021 NOSIG

2020/05/23 18:55
EHDL 231855Z AUTO 24012KT 190V320 9999 FEW083 15/06 Q1023 BLU

2020/05/23 18:55
EHBK 231855Z AUTO 26011KT 220V320 9999 NCD 16/02 Q1025 NOSIG

2020/05/23 18:55
EHEH 231855Z AUTO 26010KT 220V310 9999 NCD 16/04 Q1024 BLU

2020/05/23 18:55
EHRD 231855Z AUTO 24017KT 200V010 9999 NSC 15/08 Q1023 NOSIG

2020/05/23 18:55
EHFS 231855Z AUTO 24025KT 9999 NSC 15/08 Q1024

2020/05/23 18:56
EHVL 231856Z AUTO 24027KT 5000 -SHRA +DZ FEW013 FEW015CB BKN048 BKN054 11/09 Q1020 WHT

2020/05/23 19:03
EHKD 231903Z AUTO 27016G26KT 220V310 9999 FEW016CB SCT023 OVC054 14/09 Q1021 WHT

2020/05/23 19:07
EHKD 231907Z AUTO 27015KT 230V310 9999 SCT017 FEW018CB BKN020 OVC054 13/09 Q1022 WHT

2020/05/23 19:10
EHVL 231910Z AUTO 23020KT 9999 -RA FEW010 FEW015CB SCT052 BKN057 11/09 Q1020 BLU

2020/05/23 19:25
EHHW 231925Z AUTO 25022KT 9999 NSC 13/09 Q1020

2020/05/23 19:25
EHSC 231925Z AUTO 24026KT 9999 ///////// 13/10 Q1023 W13/H20

2020/05/23 19:25
EHSA 231925Z AUTO 21028KT 9999 ///////// 13/10 Q1023 W10/H20

2020/05/23 19:25
EHPG 231925Z AUTO 23030KT 9999 NSC 13/10 Q1021

2020/05/23 19:25
EHMG 231925Z AUTO 23030KT 9999 NSC 12/09 Q1020

2020/05/23 19:25
EHMA 231925Z AUTO 25024KT 9999 NSC 15/09 Q1020

2020/05/23 19:25
EHKV 231925Z AUTO 25023KT 9999 NSC 13/08 Q1021

2020/05/23 19:25
EHJR 231925Z AUTO 27024KT //// // ///////// 13/08 Q1020 RE// W12/H18

2020/05/23 19:25
EHQE 231925Z AUTO 20022KT 7000 -RADZ FEW000 FEW017CB 13/09 Q1021 RERA REDZ

2020/05/23 19:25
EHWO 231925Z AUTO 25013KT 220V280 9999 SCT190 BKN240 15/06 Q1025 BLU

2020/05/23 19:25
EHVL 231925Z AUTO 23023KT 9999 FEW015CB SCT093 OVC098 12/09 Q1020 REDZ BLU

2020/05/23 19:25
EHVK 231925Z AUTO 25010KT 220V300 9999 NCD 15/05 Q1024 BLU

2020/05/23 19:25
EHJA 231925Z AUTO 24025KT 9999 NSC 13/08 Q1018

2020/05/23 19:25
EHFZ 231925Z AUTO 23021KT 9999 NSC 13/08 Q1018

2020/05/23 19:25
EHFD 231925Z AUTO 00000KT 9999 NSC 12/08 Q1016

2020/05/23 19:25
EHDV 231925Z AUTO 25020KT //// // ///////// 12/07 Q1017 RE//

2020/05/23 19:25
EHAK 231925Z AUTO 24032KT 9999 NSC 12/08 Q1014

2020/05/23 19:25
EHAM 231925Z 24019KT CAVOK 14/08 Q1023 NOSIG

2020/05/23 19:25
EHLW 231925Z AUTO 25020KT 210V280 9999 FEW028 SCT069 OVC094 14/08 Q1021 BLU

2020/05/23 19:25
EHLE 231925Z AUTO 24015KT 210V270 9999 NSC 15/07 Q1023 NOSIG

2020/05/23 19:25
EHKD 231925Z AUTO 25013KT 220V280 9999 FEW018CB SCT058 BKN065 13/09 Q1022 BLU

2020/05/23 19:25
EHGR 231925Z AUTO 25007KT 9999 FEW079 15/07 Q1024 BLU

2020/05/23 19:25
EHGG 231925Z AUTO 25012KT 220V290 9999 NSC 14/06 Q1021 NOSIG

2020/05/23 19:25
EHDL 231925Z AUTO 24010KT 190V280 9999 FEW075 14/07 Q1023 BLU

2020/05/23 19:25
EHBK 231925Z AUTO 25010KT 210V310 9999 NCD 15/02 Q1025 NOSIG

2020/05/23 19:25
EHEH 231925Z AUTO 25010KT 210V290 9999 SCT054 SCT070 16/04 Q1025 BLU

2020/05/23 19:25
EHRD 231925Z AUTO 24018KT 210V010 9999 NSC 14/09 Q1023 NOSIG

2020/05/23 19:25
EHFS 231925Z AUTO 24026KT 9999 NSC 15/08 Q1024

2020/05/23 19:42
EHLW 231942Z AUTO 25022KT 210V280 9999 DZRA FEW019CB SCT070 BKN079 13/09 Q1021 BLU

2020/05/23 19:55
EHHW 231955Z AUTO 25023KT 9999 NSC 13/09 Q1020

2020/05/23 19:55
EHSC 231955Z AUTO 24026KT 8000 ///////// 13/11 Q1023 W13/H19

2020/05/23 19:55
EHSA 231955Z AUTO 22026KT 9999 ///////// 13/11 Q1023 W10/H20

2020/05/23 19:55
EHPG 231955Z AUTO 23029KT 9999 NSC 13/10 Q1022

2020/05/23 19:55
EHMG 231955Z AUTO 23027KT 9999 NSC 13/09 Q1020

2020/05/23 19:55
EHMA 231955Z AUTO 24027KT 9999 NSC 14/08 Q1020

2020/05/23 19:55
EHKV 231955Z AUTO 15019KT 9999 NSC 13/09 Q1021

2020/05/23 19:55
EHJR 231955Z AUTO 26024KT //// // ///////// 13/08 Q1021 RE// W12/H18

2020/05/23 19:55
EHQE 231955Z AUTO 21027KT 9999 FEW000 13/10 Q1021

2020/05/23 19:55
EHWO 231955Z AUTO 24013KT 210V270 9999 SCT220 14/06 Q1025 BLU

2020/05/23 19:55
EHVL 231955Z AUTO 23023KT 9999 BKN081 OVC087 12/09 Q1020 BLU

2020/05/23 19:55
EHVK 231955Z AUTO 25007KT 9999 SCT250 14/05 Q1024 BLU

2020/05/23 19:55
EHJA 231955Z AUTO 25027KT 9999 NSC 13/07 Q1018

2020/05/23 19:55
EHFZ 231955Z AUTO 23021KT 9999 NSC 13/08 Q1018

2020/05/23 19:55
EHFD 231955Z AUTO 00000KT 9999 FEW044/// 12/07 Q1016

2020/05/23 19:55
EHDV 231955Z AUTO 26020KT //// // ///////// 12/07 Q1017 RE//

2020/05/23 19:55
EHAK 231955Z AUTO 24032KT 9999 BKN049/// 12/08 Q1014

2020/05/23 19:55
EHAM 231955Z 24019KT 210V270 CAVOK 14/08 Q1023 NOSIG

2020/05/23 19:55
EHLW 231955Z AUTO 26021G31KT 220V290 9999 -RA FEW015CB SCT045 BKN051 13/09 Q1021 RERA REDZ BLU

2020/05/23 19:55
EHLE 231955Z AUTO 23014KT 9999 NCD 14/07 Q1023

2020/05/23 19:55
EHKD 231955Z AUTO 27014G25KT 250V320 9999 -RA FEW015CB BKN034 OVC041 12/08 Q1022 RERAUPRA BLU

2020/05/23 19:55
EHGR 231955Z AUTO 25008KT 9999 NCD 15/06 Q1025 BLU

2020/05/23 19:55
EHGG 231955Z AUTO 24010KT 210V280 9999 NCD 14/06 Q1021 NOSIG

2020/05/23 19:55
EHDL 231955Z AUTO 24008KT 190V340 9999 SCT078 SCT085 BKN250 14/07 Q1024 BLU

2020/05/23 19:55
EHBK 231955Z AUTO 25010KT 210V300 9999 NCD 15/03 Q1026 NOSIG

2020/05/23 19:55
EHEH 231955Z AUTO 26010KT 200V300 9999 NCD 15/04 Q1025 BLU

2020/05/23 19:55
EHRD 231955Z AUTO 24016KT 210V270 9999 NCD 14/09 Q1023 NOSIG

2020/05/23 19:55
EHFS 231955Z AUTO 23024KT 9999 NSC 14/09 Q1025

2020/05/23 20:25
EHHW 232025Z AUTO 25017KT 9999 NSC 12/09 Q1020

2020/05/23 20:25
EHSC 232025Z AUTO 24024KT 8000 ///////// 13/11 Q1023 W13/H17

2020/05/23 20:25
EHSA 232025Z AUTO 22024KT 9999 ///////// 13/11 Q1024 W10/H19

2020/05/23 20:25
EHPG 232025Z AUTO 23025KT 9999 NSC 13/10 Q1022

2020/05/23 20:25
EHMG 232025Z AUTO 23027KT 9999 NSC 13/10 Q1020

2020/05/23 20:25
EHMA 232025Z AUTO 25023KT 9999 FEW025CB 14/08 Q1020

2020/05/23 20:25
EHKV 232025Z AUTO 24019KT 9999 NSC 13/08 Q1022

2020/05/23 20:25
EHJR 232025Z AUTO 27025KT //// // ///////// 14/07 Q1021 RE// W12/H17

2020/05/23 20:25
EHQE 232025Z AUTO 20025KT 9999 FEW015CB 13/10 Q1021

2020/05/23 20:25
EHWO 232025Z AUTO 24015KT 9999 NCD 14/06 Q1025 BLU

2020/05/23 20:25
EHVL 232025Z AUTO 24023KT 9999 FEW069 SCT076 BKN082 12/08 Q1021 BLU

2020/05/23 20:25
EHVK 232025Z AUTO 24007KT 210V280 9999 FEW079 13/06 Q1024 BLU

2020/05/23 20:25
EHJA 232025Z AUTO 24025KT 9999 NSC 13/08 Q1019

2020/05/23 20:25
EHFZ 232025Z AUTO 23021KT 9999 NSC 13/08 Q1019

2020/05/23 20:25
EHFD 232025Z AUTO 00000KT 9999 FEW040/// 12/07 Q1016 REDZ

2020/05/23 20:25
EHDV 232025Z AUTO 27023KT //// // ///////// 12/07 Q1017 RE//

2020/05/23 20:25
EHAK 232025Z AUTO 25032KT 9999 SCT047/// 12/08 Q1014

2020/05/23 20:25
EHAM 232025Z 24016KT 200V270 CAVOK 14/09 Q1023 NOSIG

2020/05/23 20:25
EHLW 232025Z AUTO 24009KT 210V280 9999 FEW018CB BKN074 BKN079 13/08 Q1021 BLU

2020/05/23 20:25
EHLE 232025Z AUTO 24013KT 9999 NSC 14/07 Q1023

2020/05/23 20:25
EHKD 232025Z AUTO 25009KT 210V290 9999 FEW015CB BKN053 BKN061 13/10 Q1022 BLU

2020/05/23 20:25
EHGR 232025Z AUTO 24009KT 210V280 9999 NCD 14/06 Q1025 BLU

2020/05/23 20:25
EHGG 232025Z AUTO 24011KT 210V290 9999 SCT036 14/07 Q1022 TEMPO 6000 SHRA SCT040CB

2020/05/23 20:25
EHDL 232025Z AUTO 23011KT 180V280 9999 NCD 14/07 Q1024 BLU

2020/05/23 20:25
EHBK 232025Z AUTO 24008KT 200V270 9999 NCD 14/04 Q1026 NOSIG

2020/05/23 20:25
EHEH 232025Z AUTO 24009KT 210V280 9999 SCT230 14/05 Q1025 BLU

2020/05/23 20:25
EHRD 232025Z AUTO 24016KT 200V260 9999 NSC 13/10 Q1024 NOSIG

2020/05/23 20:25
EHFS 232025Z AUTO 23022KT 9999 NSC 14/09 Q1025

2020/05/23 20:55
EHHW 232055Z AUTO 25019KT 9999 NSC 12/09 Q1020

2020/05/23 20:55
EHSC 232055Z AUTO 24024KT 8000 ///////// 13/11 Q1023 W13/H17

2020/05/23 20:55
EHSA 232055Z AUTO 22024KT 9999 ///////// 13/11 Q1024 W10/H19

2020/05/23 20:55
EHPG 232055Z AUTO 25024KT 9999 NSC 13/09 Q1022

2020/05/23 20:55
EHMG 232055Z AUTO 24026KT 9999 NSC 13/10 Q1020

2020/05/23 20:55
EHMA 232055Z AUTO 24023KT 9999 NSC 15/09 Q1020

2020/05/23 20:55
EHKV 232055Z AUTO 26026KT 9999 NSC 14/07 Q1022

2020/05/23 20:55
EHJR 232055Z AUTO 28026KT //// // ///////// 13/07 Q1021 RE// W12/H17

2020/05/23 20:55
EHQE 232055Z AUTO 21022KT 9999 FEW019CB 13/09 Q1021

2020/05/23 20:55
EHWO 232055Z AUTO 24012KT 220V280 9999 NCD 14/06 Q1025 BLU

2020/05/23 20:55
EHVL 232055Z AUTO 24021KT 9999 SCT060 BKN066 OVC073 13/10 Q1021 BLU

2020/05/23 20:55
EHVK 232055Z AUTO 24008KT 220V280 9999 NCD 14/06 Q1025 BLU

2020/05/23 20:55
EHJA 232055Z AUTO 24025KT 9999 NSC 13/08 Q1019

2020/05/23 20:55
EHFZ 232055Z AUTO 24019KT 9999 NSC 13/08 Q1019

2020/05/23 20:55
EHFD 232055Z AUTO 00000KT 9999 -RA FEW046/// 12/08 Q1016

2020/05/23 20:55
EHDV 232055Z AUTO 25018KT //// // ///////// 12/08 Q1017 RE//

2020/05/23 20:55
EHAK 232055Z AUTO 25034KT 9999 SCT048/// 12/08 Q1014

2020/05/23 20:55
EHAM 232055Z 24018KT CAVOK 14/09 Q1023 NOSIG

2020/05/23 20:55
EHLW 232055Z AUTO 23013KT 190V260 9999 BKN048 OVC086 12/08 Q1021 BLU

2020/05/23 20:55
EHLE 232055Z AUTO 23013KT 9999 NSC 14/08 Q1023

2020/05/23 20:55
EHKD 232055Z AUTO 25014KT 9999 BKN056 BKN062 OVC090 13/10 Q1022 BLU

2020/05/23 20:55
EHGR 232055Z AUTO 24010KT 220V290 9999 BKN260 14/06 Q1025 BLU

2020/05/23 20:55
EHGG 232055Z AUTO 25013KT 210V280 9999 -RADZ SCT047 14/08 Q1022 TEMPO 6000 SHRA SCT040CB

2020/05/23 20:55
EHDL 232055Z AUTO 24010KT 170V280 9999 FEW270 13/07 Q1024 BLU

2020/05/23 20:55
EHBK 232055Z AUTO 24009KT 210V280 9999 NCD 13/04 Q1026 NOSIG

2020/05/23 20:55
EHEH 232055Z AUTO 23008KT 190V290 9999 NCD 13/05 Q1025 BLU

2020/05/23 20:55
EHRD 232055Z AUTO 24012KT 210V280 9999 NSC 13/10 Q1024 NOSIG

2020/05/23 20:55
EHFS 232055Z AUTO 23022KT 8000 NSC 14/09 Q1025

2020/05/23 21:25
EHHW 232125Z AUTO 25019KT 9999 NSC 12/09 Q1020

2020/05/23 21:25
EHSC 232125Z AUTO 25025KT 9000 ///////// 13/11 Q1023 W13/H15

2020/05/23 21:25
EHSA 232125Z AUTO 22023KT 9999 ///////// 13/10 Q1024 W10/H19

2020/05/23 21:25
EHPG 232125Z AUTO 25023KT 9999 NSC 13/09 Q1023

2020/05/23 21:25
EHMG 232125Z AUTO 24024KT 9999 NSC 13/09 Q1021

2020/05/23 21:25
EHMA 232125Z AUTO 25021KT 9999 NSC 14/09 Q1020

2020/05/23 21:25
EHKV 232125Z AUTO 27030KT 9999 NSC 14/07 Q1022

2020/05/23 21:25
EHJR 232125Z AUTO 26021KT //// // ///////// 13/08 Q1021 RE// W12/H15

2020/05/23 21:25
EHQE 232125Z AUTO 20025KT 9999 FEW017CB 13/09 Q1021

2020/05/23 21:25
EHWO 232125Z AUTO 24011KT 210V270 9999 SCT088 13/07 Q1025 BLU

2020/05/23 21:25
EHVL 232125Z AUTO 25020KT 9999 BKN088 13/09 Q1021 BLU

2020/05/23 21:25
EHVK 232125Z AUTO 24009KT 220V290 9999 SCT290 14/06 Q1025 BLU

2020/05/23 21:25
EHJA 232125Z AUTO 24029KT 9999 NSC 13/08 Q1019

2020/05/23 21:25
EHFZ 232125Z AUTO 23021KT 9999 NSC 13/08 Q1019

2020/05/23 21:25
EHFD 232125Z AUTO 00000KT 9999 FEW047/// 12/08 Q1016 REDZ

2020/05/23 21:25
EHDV 232125Z AUTO 24020KT //// // ///////// 12/07 Q1017 RE//

2020/05/23 21:25
EHAK 232125Z AUTO 25033KT 9999 FEW049/// 12/08 Q1014

2020/05/23 21:25
EHAM 232125Z 24018KT CAVOK 14/09 Q1023 NOSIG

2020/05/23 21:25
EHLW 232125Z AUTO 24012KT 200V270 9999 BKN060 BKN067 OVC090 13/07 Q1021 BLU

2020/05/23 21:25
EHLE 232125Z AUTO 24014KT 9999 NSC 14/08 Q1023

2020/05/23 21:25
EHKD 232125Z AUTO 25014KT 9999 FEW015CB SCT090 13/10 Q1022 BLU

2020/05/23 21:25
EHGR 232125Z AUTO 22006KT 180V260 9999 BKN250 13/06 Q1025 BLU

2020/05/23 21:25
EHGG 232125Z AUTO 24011KT 9999 FEW015CB 12/08 Q1022 RERA REDZ TEMPO 6000 SHRA SCT040CB

2020/05/23 21:25
EHDL 232125Z AUTO 24011KT 200V280 9999 NCD 13/07 Q1024 BLU

2020/05/23 21:25
EHBK 232125Z AUTO 24009KT 210V280 9999 NCD 13/04 Q1026 NOSIG

2020/05/23 21:25
EHEH 232125Z AUTO 23009KT 190V260 9999 BKN250 13/04 Q1025 BLU

2020/05/23 21:25
EHRD 232125Z AUTO 24014KT 210V270 9999 NSC 13/10 Q1024 NOSIG

2020/05/23 21:25
EHFS 232125Z AUTO 23020KT 9999 NCD 13/09 Q1025

2020/05/23 21:55
EHHW 232155Z AUTO 25014KT 9999 NSC 12/09 Q1020

2020/05/23 21:55
EHSC 232155Z AUTO 25025KT 9000 ///////// 13/10 Q1024 W13/H16

2020/05/23 21:55
EHSA 232155Z AUTO 22021KT 9999 ///////// 14/10 Q1024 W10/H17

2020/05/23 21:55
EHPG 232155Z AUTO 27027KT 220V320 9999 NSC 14/08 Q1023

2020/05/23 21:55
EHMG 232155Z AUTO 24022KT 9999 NSC 13/10 Q1021

2020/05/23 21:55
EHMA 232155Z AUTO 25021KT 9999 NSC 15/09 Q1021

2020/05/23 21:55
EHKV 232155Z AUTO 25024KT 9999 NSC 13/08 Q1022

2020/05/23 21:55
EHJR 232155Z AUTO 26021KT //// // ///////// 13/09 Q1021 RE// W12/H16

2020/05/23 21:55
EHQE 232155Z AUTO 21023KT 9999 NSC 14/09 Q1022

2020/05/23 21:55
EHWO 232155Z AUTO 24010KT 9999 SCT062 SCT083 13/07 Q1025 BLU

2020/05/23 21:55
EHVL 232155Z AUTO 24018KT 9999 BKN090 13/09 Q1021 BLU

2020/05/23 21:55
EHVK 232155Z AUTO 23008KT 9999 SCT260 12/06 Q1025 BLU

2020/05/23 21:55
EHJA 232155Z AUTO 24030KT 9999 NSC 13/07 Q1019

2020/05/23 21:55
EHFZ 232155Z AUTO 23021KT 9999 NSC 12/08 Q1019

2020/05/23 21:55
EHFD 232155Z AUTO 00000KT 9999 FEW047/// 12/08 Q1016

2020/05/23 21:55
EHDV 232155Z AUTO 25019KT //// // ///////// 12/08 Q1018 RE//

2020/05/23 21:55
EHAK 232155Z AUTO 25032KT 9999 NSC 12/08 Q1014

2020/05/23 21:55
EHAM 232155Z 24015G25KT CAVOK 14/10 Q1023 NOSIG

2020/05/23 21:55
EHLW 232155Z AUTO 23011KT 9999 FEW081 12/09 Q1021 BLU

2020/05/23 21:55
EHLE 232155Z AUTO 23013KT 200V260 9999 NSC 13/09 Q1023

2020/05/23 21:55
EHKD 232155Z AUTO 25015KT 9999 FEW059 BKN085 13/09 Q1022 BLU

2020/05/23 21:55
EHGR 232155Z AUTO 24008KT 210V270 9999 NCD 13/06 Q1025 BLU

2020/05/23 21:55
EHGG 232155Z AUTO 24013KT 200V260 9999 FEW015CB 12/09 Q1021

2020/05/23 21:55
EHDL 232155Z AUTO 24010KT 180V300 9999 NCD 13/07 Q1024 BLU

2020/05/23 21:55
EHBK 232155Z AUTO 24012KT 200V290 9999 NCD 13/04 Q1027

2020/05/23 21:55
EHEH 232155Z AUTO 23010KT 190V250 9999 NCD 13/05 Q1026 BLU

2020/05/23 21:55
EHRD 232155Z AUTO 24012KT 210V270 9999 NCD 13/10 Q1024 NOSIG

2020/05/23 21:55
EHFS 232155Z AUTO 23021KT 9999 NCD 13/09 Q1025

2020/05/23 22:25
EHHW 232225Z AUTO 26017KT 210V300 9999 NSC 12/09 Q1020

2020/05/23 22:25
EHSC 232225Z AUTO 25024KT 9999 ///////// 14/10 Q1024 W13/H16

2020/05/23 22:25
EHSA 232225Z AUTO 22021KT 9999 ///////// 13/10 Q1024 W10/H16

2020/05/23 22:25
EHPG 232225Z AUTO 26026KT 9999 NSC 13/08 Q1023

2020/05/23 22:25
EHMG 232225Z AUTO 25023KT 9999 NSC 13/09 Q1020

2020/05/23 22:25
EHMA 232225Z AUTO 25020KT 9999 NSC 14/09 Q1020

2020/05/23 22:25
EHKV 232225Z AUTO 25022KT 9999 NSC 13/09 Q1022

2020/05/23 22:25
EHJR 232225Z AUTO 26022KT //// // ///////// 13/08 Q1022 RE// W12/H15

2020/05/23 22:25
EHQE 232225Z AUTO 21020KT 9999 NSC 13/09 Q1022

2020/05/23 22:25
EHWO 232225Z AUTO 24014KT 9999 NCD 13/08 Q1025 BLU

2020/05/23 22:25
EHVL 232225Z AUTO 24020KT 9999 SCT081 BKN087 13/10 Q1021 BLU

2020/05/23 22:25
EHVK 232225Z AUTO 23011KT 9999 NCD 13/06 Q1025 BLU

2020/05/23 22:25
EHJA 232225Z AUTO 24031KT 9999 NSC 13/07 Q1019

2020/05/23 22:25
EHFZ 232225Z AUTO 23022KT 9999 NSC 12/08 Q1019

2020/05/23 22:25
EHFD 232225Z AUTO 00000KT 9999 NSC 12/08 Q1016

2020/05/23 22:25
EHDV 232225Z AUTO 26024KT //// // ///////// 12/07 Q1018 RE//

2020/05/23 22:25
EHAK 232225Z AUTO 24032KT 9999 NSC 12/08 Q1014

2020/05/23 22:25
EHAM 232225Z 24016KT 210V280 CAVOK 14/09 Q1023 NOSIG

2020/05/23 22:25
EHLW 232225Z AUTO 23010KT 9999 BKN086 13/10 Q1021 BLU

2020/05/23 22:25
EHLE 232225Z AUTO 23013KT 9999 NSC 13/09 Q1023

2020/05/23 22:25
EHKD 232225Z AUTO 26012KT 220V290 9999 BKN053 BKN060 OVC069 13/09 Q1022 BLU

2020/05/23 22:25
EHGR 232225Z AUTO 23006KT 200V260 9999 NCD 13/07 Q1025 BLU

2020/05/23 22:25
EHGG 232225Z AUTO 23012KT 9999 FEW015CB 11/08 Q1022

2020/05/23 22:25
EHDL 232225Z AUTO 23009KT 150V280 9999 SCT061 13/08 Q1024 BLU

2020/05/23 22:25
EHBK 232225Z AUTO 23011KT 210V280 9999 NCD 12/04 Q1027

2020/05/23 22:25
EHEH 232225Z AUTO 22010KT 190V250 9999 NCD 13/05 Q1026 BLU

2020/05/23 22:25
EHRD 232225Z AUTO 24015KT 200V280 9999 NCD 13/10 Q1024 NOSIG

2020/05/23 22:25
EHFS 232225Z AUTO 23021KT 9999 FEW017/// 13/09 Q1025

2020/05/23 22:55
EHHW 232255Z AUTO 26019KT 230V290 9999 NSC 13/08 Q1019

2020/05/23 22:55
EHSC 232255Z AUTO 26023KT 9999 ///////// 14/10 Q1024 W13/H16

2020/05/23 22:55
EHSA 232255Z AUTO 23018KT 9999 ///////// 13/09 Q1024 W10/H17

2020/05/23 22:55
EHPG 232255Z AUTO 26026KT 250V310 9999 NSC 13/08 Q1023

2020/05/23 22:55
EHMG 232255Z AUTO 25024KT 9999 NSC 13/09 Q1021

2020/05/23 22:55
EHMA 232255Z AUTO 26016KT 9999 NSC 14/09 Q1020

2020/05/23 22:55
EHKV 232255Z AUTO 25023KT 9999 NSC 13/08 Q1022

2020/05/23 22:55
EHJR 232255Z AUTO 26025KT //// // ///////// 13/08 Q1022 RE// W12/H15

2020/05/23 22:55
EHQE 232255Z AUTO 22024KT 9999 NSC 13/09 Q1021

2020/05/23 22:55
EHWO 232255Z AUTO 24011KT 9999 NCD 12/08 Q1026 BLU

2020/05/23 22:55
EHVL 232255Z AUTO 26020KT 9999 BKN069 OVC092 13/09 Q1021 BLU

2020/05/23 22:55
EHVK 232255Z AUTO 23009KT 9999 NCD 11/05 Q1025 BLU

2020/05/23 22:55
EHJA 232255Z AUTO 24031KT 9999 NSC 13/08 Q1019

2020/05/23 22:55
EHFZ 232255Z AUTO 24023KT 9999 NSC 12/08 Q1019

2020/05/23 22:55
EHFD 232255Z AUTO 00000KT 9999 NSC 12/08 Q1016

2020/05/23 22:55
EHDV 232255Z AUTO 26025KT //// // ///////// 12/07 Q1018 RE//

2020/05/23 22:55
EHAK 232255Z AUTO 25032KT 9999 NSC 12/08 Q1014

2020/05/23 22:55
EHAM 232255Z 24017KT 210V280 CAVOK 14/09 Q1023 NOSIG

2020/05/23 22:55
EHLW 232255Z AUTO 23009KT 9999 FEW092 12/09 Q1021 BLU

2020/05/23 22:55
EHLE 232255Z AUTO 23011KT 9999 NSC 13/09 Q1023

2020/05/23 22:55
EHKD 232255Z AUTO 26013KT 220V280 9999 BKN057 BKN065 OVC091 13/09 Q1022 BLU

2020/05/23 22:55
EHGR 232255Z AUTO 23007KT 200V270 9999 NCD 13/07 Q1025 BLU

2020/05/23 22:55
EHGG 232255Z AUTO 23008KT 9999 NSC 11/08 Q1021

2020/05/23 22:55
EHDL 232255Z AUTO 22008KT 180V280 9999 NCD 12/07 Q1024 BLU

2020/05/23 22:55
EHBK 232255Z AUTO 23012KT 9999 NCD 12/04 Q1027

2020/05/23 22:55
EHEH 232255Z AUTO 23010KT 200V270 9999 NCD 12/06 Q1025 BLU

2020/05/23 22:55
EHRD 232255Z AUTO 24015KT 210V270 9999 NSC 13/10 Q1024 NOSIG

2020/05/23 22:55
EHFS 232255Z AUTO 23020KT 9999 FEW016/// 13/10 Q1025

2020/05/23 23:25
EHHW 232325Z AUTO 26016KT 210V310 9999 NSC 13/08 Q1019

2020/05/23 23:25
EHSC 232325Z AUTO 26022KT 9999 ///////// 14/09 Q1024 W13/H15

2020/05/23 23:25
EHSA 232325Z AUTO 24019KT 9999 ///////// 13/09 Q1025 W10/H15

2020/05/23 23:25
EHPG 232325Z AUTO 26025KT 240V310 9999 NSC 13/08 Q1023

2020/05/23 23:25
EHMG 232325Z AUTO 26025KT 9999 NSC 13/09 Q1021

2020/05/23 23:25
EHMA 232325Z AUTO 25017KT 9999 NSC 14/09 Q1021

2020/05/23 23:25
EHKV 232325Z AUTO 25026KT 9999 NSC 13/08 Q1022

2020/05/23 23:25
EHJR 232325Z AUTO 26022KT //// // ///////// 13/09 Q1022 RE// W12/H16

2020/05/23 23:25
EHQE 232325Z AUTO 22026KT 9999 NSC 13/08 Q1021

2020/05/23 23:25
EHWO 232325Z AUTO 24015KT 200V270 9999 SCT067 BKN280 12/08 Q1026 BLU

2020/05/23 23:25
EHVL 232325Z AUTO 26020KT 9999 OVC260 13/09 Q1021 BLU

2020/05/23 23:25
EHVK 232325Z AUTO 23009KT 210V270 9999 NCD 11/06 Q1025 BLU

2020/05/23 23:25
EHJA 232325Z AUTO 24029KT 9999 NSC 12/08 Q1020

2020/05/23 23:25
EHFZ 232325Z AUTO 24025KT 9999 NSC 12/08 Q1019

2020/05/23 23:25
EHFD 232325Z AUTO 00000KT 9999 NSC 12/08 Q1016

2020/05/23 23:25
EHDV 232325Z AUTO 26027KT //// // ///////// 12/07 Q1018 RE//

2020/05/23 23:25
EHAK 232325Z AUTO 25034KT 9999 NSC 12/08 Q1015

2020/05/23 23:25
EHAM 232325Z 25015KT 210V270 CAVOK 14/09 Q1023 NOSIG

2020/05/23 23:25
EHLW 232325Z AUTO 24010KT 210V290 9999 BKN055 OVC062 13/09 Q1021 BLU

2020/05/23 23:25
EHLE 232325Z AUTO 23011KT 9999 NSC 13/10 Q1023

2020/05/23 23:25
EHKD 232325Z AUTO 25010KT 220V280 9999 OVC270 13/09 Q1022 BLU

2020/05/23 23:25
EHGR 232325Z AUTO 23006KT 200V270 9999 NCD 12/07 Q1025 BLU

2020/05/23 23:25
EHGG 232325Z AUTO 22008KT 9999 NSC 11/09 Q1022

2020/05/23 23:25
EHDL 232325Z AUTO 23009KT 170V270 9999 SCT072 BKN078 12/07 Q1024 BLU

2020/05/23 23:25
EHBK 232325Z AUTO 23011KT 210V270 9999 NCD 11/05 Q1027

2020/05/23 23:25
EHEH 232325Z AUTO 23011KT 200V260 9999 NCD 12/06 Q1026 BLU

2020/05/23 23:25
EHRD 232325Z AUTO 24013KT 220V280 9999 NSC 13/10 Q1024 NOSIG

2020/05/23 23:25
EHFS 232325Z AUTO 22018KT 9999 NCD 12/10 Q1025

2020/05/23 23:55
EHHW 232355Z AUTO 28022KT 9999 NSC 13/08 Q1019

2020/05/23 23:55
EHSC 232355Z AUTO 27025KT 9999 ///////// 14/09 Q1024 W13/H15

2020/05/23 23:55
EHSA 232355Z AUTO 24020KT 9999 ///////// 13/08 Q1025 W10/H16

2020/05/23 23:55
EHPG 232355Z AUTO 26026KT 200V320 9999 NSC 13/08 Q1023

2020/05/23 23:55
EHMG 232355Z AUTO 26025KT 9999 NSC 13/08 Q1021

2020/05/23 23:55
EHMA 232355Z AUTO 26018KT 9999 NSC 14/09 Q1021

2020/05/23 23:55
EHKV 232355Z AUTO 26028KT 9999 NSC 13/08 Q1023

2020/05/23 23:55
EHJR 232355Z AUTO 26023KT //// // ///////// 12/08 Q1022 RE// W12/H16

2020/05/23 23:55
EHQE 232355Z AUTO 22027KT 9999 NSC 13/09 Q1022

2020/05/23 23:55
EHWO 232355Z AUTO 24012KT 220V280 9999 FEW016 SCT058 BKN070 12/09 Q1026 BLU

2020/05/23 23:55
EHVL 232355Z AUTO 25017KT 9999 BKN280 13/09 Q1021 BLU

2020/05/23 23:55
EHVK 232355Z AUTO 23010KT 190V260 9999 FEW066 11/06 Q1025 BLU

2020/05/23 23:55
EHJA 232355Z AUTO 25031KT 9999 NSC 12/07 Q1020

2020/05/23 23:55
EHFZ 232355Z AUTO 24025KT 9999 NSC 12/08 Q1019

2020/05/23 23:55
EHFD 232355Z AUTO 00000KT 9999 NSC 12/08 Q1016

2020/05/23 23:55
EHDV 232355Z AUTO 26026KT //// // ///////// 12/07 Q1018 RE//

2020/05/23 23:55
EHAK 232355Z AUTO 25034KT 9999 NSC 12/08 Q1015

2020/05/23 23:55
EHAM 232355Z 26016KT CAVOK 14/08 Q1024 NOSIG

2020/05/23 23:55
EHLW 232355Z AUTO 26014KT 230V290 9999 BKN065 OVC072 14/07 Q1021 BLU

2020/05/23 23:55
EHLE 232355Z AUTO 24010KT 9999 NSC 13/10 Q1023

2020/05/23 23:55
EHKD 232355Z AUTO 26014KT 230V290 9999 NCD 13/08 Q1022 BLU

2020/05/23 23:55
EHGR 232355Z AUTO 24008KT 210V280 9999 BKN280 12/08 Q1025 BLU

2020/05/23 23:55
EHGG 232355Z AUTO 22008KT 9999 NSC 11/09 Q1022

2020/05/23 23:55
EHDL 232355Z AUTO 23010KT 190V280 9999 SCT057 12/08 Q1024 BLU

2020/05/23 23:55
EHBK 232355Z AUTO 23012KT 200V270 9999 NCD 11/05 Q1027

2020/05/23 23:55
EHEH 232355Z AUTO 23010KT 200V260 9999 NCD 12/06 Q1026 BLU

2020/05/23 23:55
EHRD 232355Z AUTO 25013KT 210V280 9999 NSC 13/09 Q1024 NOSIG

2020/05/23 23:55
EHFS 232355Z AUTO 23016KT 9000 NSC 12/10 Q1026
